ZIP,TOWN,COUNTY
24210,Abingdon,Washington County
24211,Abingdon,Washington County
24212,Abingdon,Washington County
23301,Accomac,Accomack County
23001,Achilles,Gloucester County
22920,Afton,Nelson County
23821,Alberta,Brunswick County
20105,Aldie,Loudoun County
22301,Alexandria,Alexandria City
22302,Alexandria,Alexandria City
22303,Alexandria,Fairfax County
22304,Alexandria,Alexandria City
22305,Alexandria,Alexandria City
22306,Alexandria,Fairfax County
22307,Alexandria,Fairfax County
22308,Alexandria,Fairfax County
22309,Alexandria,Fairfax County
22310,Alexandria,Fairfax County
22311,Alexandria,Alexandria City
22312,Alexandria,Fairfax County
22313,Alexandria,Alexandria City
22314,Alexandria,Alexandria City
22315,Alexandria,Fairfax County
22320,Alexandria,Alexandria City
22321,Alexandria,Alexandria City
22331,Alexandria,Alexandria City
22332,Alexandria,Alexandria City
22333,Alexandria,Alexandria City
22334,Alexandria,Alexandria City
22336,Alexandria,Alexandria City
22350,Alexandria,Alexandria City
24517,Altavista,Campbell County
24520,Alton,Halifax County
23002,Amelia Court House,Amelia County
24521,Amherst,Amherst County
20106,Amissville,Rappahannock County
23822,Ammon,Amelia County
24601,Amonate,Tazewell County
24215,Andover,Wise County
22003,Annandale,Fairfax County
24216,Appalachia,Wise County
24522,Appomattox,Appomattox County
24053,Ararat,Patrick County
20107,Arcola,Loudoun County
23003,Ark,Gloucester County
22201,Arlington,Arlington County
22202,Arlington,Arlington County
22203,Arlington,Arlington County
22204,Arlington,Arlington County
22205,Arlington,Arlington County
22206,Arlington,Arlington County
22207,Arlington,Arlington County
22209,Arlington,Arlington County
22210,Arlington,Arlington County
22212,Arlington,Arlington County
22213,Arlington,Arlington County
22214,Arlington,Arlington County
22215,Arlington,Arlington County
22216,Arlington,Arlington County
22217,Arlington,Arlington County
22218,Arlington,Arlington County
22219,Arlington,Arlington County
22222,Arlington,Arlington County
22223,Arlington,Arlington County
22225,Arlington,Arlington County
22226,Arlington,Arlington County
22227,Arlington,Arlington County
22229,Arlington,Arlington County
22230,Arlington,Arlington County
22234,Arlington,Arlington County
22240,Arlington,Arlington County
22241,Arlington,Arlington County
22242,Arlington,Arlington County
22243,Arlington,Arlington County
22244,Arlington,Arlington County
22245,Arlington,Arlington County
22246,Arlington,Arlington County
22709,Aroda,Madison County
22922,Arrington,Nelson County
23004,Arvonia,Buckingham County
20146,Ashburn,Loudoun County
20147,Ashburn,Loudoun County
20148,Ashburn,Loudoun County
20149,Ashburn,Loudoun County
22093,Ashburn,Loudoun County
23005,Ashland,Hanover County
23302,Assawoman,Accomack County
24311,Atkins,Smyth County
23303,Atlantic,Accomack County
24411,Augusta Springs,Augusta County
24312,Austinville,Carroll County
24054,Axton,Henry County
23009,Aylett,King William County
24412,Bacova,Bath County
22711,Banco,Madison County
24602,Bandy,Tazewell County
22923,Barboursville,Orange County
23011,Barhamsville,New Kent County
24313,Barren Springs,Wythe County
23915,Baskerville,Mecklenburg County
24055,Bassett,Henry County
24314,Bastian,Bland County
22810,Basye,Shenandoah County
22924,Batesville,Albemarle County
23304,Battery Park,Isle of Wight County
22712,Bealeton,Fauquier County
23014,Beaumont,Powhatan County
23015,Beaverdam,Hanover County
24523,Bedford,Bedford City
24217,Bee,Dickenson County
23306,Belle Haven,Accomack County
24058,Belspring,Pulaski County
24218,Ben Hur,Lee County
23018,Bena,Gloucester County
24059,Bent Mountain,Roanoke County
22610,Bentonville,Warren County
22811,Bergton,Rockingham County
22611,Berryville,Clarke County
24526,Big Island,Bedford County
24603,Big Rock,Buchanan County
24219,Big Stone Gap,Wise County
24219,Big Stone Gap,Wise County
24220,Birchleaf,Dickenson County
23307,Birdsnest,Northampton County
24604,Bishop,Tazewell County
24060,Blacksburg,Montgomery County
24061,Blacksburg,Montgomery County
24062,Blacksburg,Montgomery County
24063,Blacksburg,Montgomery County
23824,Blackstone,Nottoway County
23825,Blackstone,Nottoway County
24221,Blackwater,Lee County
24527,Blairs,Pittsylvania County
24315,Bland,Bland County
23308,Bloxom,Accomack County
24413,Blue Grass,Highland County
24064,Blue Ridge,Botetourt County
24605,Bluefield,Tazewell County
20135,Bluemont,Clarke County
23021,Bohannon,Mathews County
24606,Boissevain,Tazewell County
24065,Boones Mill,Franklin County
22713,Boston,Culpeper County
22427,Bowling Green,Caroline County
22428,Bowling Green,Caroline County
22620,Boyce,Clarke County
23917,Boydton,Mecklenburg County
23827,Boykins,Southampton County
23919,Bracey,Mecklenburg County
23828,Branchville,Southampton County
22714,Brandy Station,Culpeper County
24607,Breaks,Dickenson County
23022,Bremo Bluff,Fluvanna County
22812,Bridgewater,Rockingham County
22715,Brightwood,Madison County
24201,Bristol,Bristol City
24202,Bristol,Washington County
24203,Bristol,Bristol City
24205,Bristol,Bristol City
24209,Bristol,Bristol City
20136,Bristow,Prince William County
20137,Broad Run,Fauquier County
24316,Broadford,Tazewell County
22815,Broadway,Rockingham County
23920,Brodnax,Brunswick County
23857,Brodnax,Brunswick County
22430,Brooke,Stafford County
24528,Brookneal,Campbell County
24415,Brownsburg,Rockbridge County
22610,Browntown,Albemarle
22622,Brucetown,Frederick County
23023,Bruington,King and Queen County
24066,Buchanan,Botetourt County
23921,Buckingham,Buckingham County
24416,Buena Vista,Buena Vista City
24529,Buffalo Junction,Mecklenburg County
23024,Bumpass,Louisa County
22432,Burgess,Northumberland County
22009,Burke,Fairfax County
22015,Burke,Fairfax County
24608,Burkes Garden,Tazewell County
23922,Burkeville,Nottoway County
22433,Burr Hill,Orange County
24530,Callands,Pittsylvania County
22435,Callao,Northumberland County
24067,Callaway,Franklin County
20138,Calverton,Fauquier County
24317,Cana,Carroll County
23310,Cape Charles,Northampton County
23313,Capeville,Northampton County
23829,Capron,Southampton County
23025,Cardinal,Mathews County
22436,Caret,Essex County
23314,Carrollton,Isle of Wight County
23315,Carrsville,Isle of Wight County
23830,Carson,Prince George County
23027,Cartersville,Cumberland County
20139,Casanova,Fauquier County
24069,Cascade,Pittsylvania County
22716,Castleton,Rappahannock County
24224,Castlewood,Russell County
24070,Catawba,Roanoke County
20143,Catharpin,Prince William County
20119,Catlett,Fauquier County
24609,Cedar Bluff,Tazewell County
22437,Center Cross,Essex County
22437,Center Cross,Essex County
20120,Centreville,Fairfax County
20121,Centreville,Fairfax County
20122,Centreville,Fairfax County
24318,Ceres,Bland County
22438,Champlain,Essex County
20151,Chantilly,Fairfax County
20152,Chantilly,Loudoun County
20153,Chantilly,Fairfax County
23030,Charles City,Charles City County
23923,Charlotte Court House,Charlotte County
22901,Charlottesville,Albemarle County
22902,Charlottesville,Albemarle County
22903,Charlottesville,Albemarle County
22904,Charlottesville,Charlottesville City
22905,Charlottesville,Charlottesville City
22906,Charlottesville,Charlottesville City
22907,Charlottesville,Charlottesville City
22908,Charlottesville,Charlottesville City
22909,Charlottesville,Charlottesville City
22910,Charlottesville,Charlottesville City
22911,Charlottesville,Albemarle County
23924,Chase City,Mecklenburg County
24531,Chatham,Pittsylvania County
24072,Check,Floyd County
23316,Cheriton,Northampton County
23320,Chesapeake,Chesapeake City
23321,Chesapeake,Chesapeake City
23322,Chesapeake,Chesapeake City
23323,Chesapeake,Chesapeake City
23324,Chesapeake,Chesapeake City
23325,Chesapeake,Chesapeake City
23326,Chesapeake,Chesapeake City
23327,Chesapeake,Chesapeake City
23328,Chesapeake,Chesapeake City
23831,Chester,Chesterfield County
23836,Chester,Chesterfield County
22623,Chester Gap,Rappahannock County
23832,Chesterfield,Chesterfield County
23838,Chesterfield,Chesterfield County
24319,Chilhowie,Smyth County
23336,Chincoteague Island,Accomack County
23336,Chincoteague Island,Accomack County
23031,Christchurch,Middlesex County
24068,Christiansburg,Montgomery County
24073,Christiansburg,Montgomery County
23833,Church Road,Dinwiddie County
23032,Church View,Middlesex County
24421,Churchville,Augusta County
23899,Claremont,Surry County
23927,Clarksville,Mecklenburg County
24076,Claudville,Patrick County
22624,Clear Brook,Frederick County
24225,Cleveland,Russell County
24533,Clifford,Amherst County
20124,Clifton,Fairfax County
24422,Clifton Forge,Alleghany County
24226,Clinchco,Dickenson County
24228,Clintwood,Dickenson County
24534,Clover,Halifax County
24077,Cloverdale,Botetourt County
24535,Cluster Springs,Halifax County
23035,Cobbs Creek,Mathews County
24230,Coeburn,Wise County
24536,Coleman Falls,Bedford County
22442,Coles Point,Westmoreland County
24078,Collinsville,Henry County
22443,Colonial Beach,Westmoreland County
23834,Colonial Heights,Colonial Heights City
23038,Columbia,Cumberland County
24538,Concord,Appomattox County
24079,Copper Hill,Floyd County
22446,Corbin,Caroline County
23837,Courtland,Southampton County
22931,Covesville,Albemarle County
24426,Covington,Alleghany County
23341,Craddockville,Accomack County
24430,Craigsville,Augusta County
23930,Crewe,Nottoway County
22820,Criders,Rockingham County
24431,Crimora,Augusta County
24322,Cripple Creek,Wythe County
24082,Critz,Patrick County
24323,Crockett,Wythe County
22625,Cross Junction,Frederick County
22932,Crozet,Albemarle County
23039,Crozier,Goochland County
24539,Crystal Hill,Halifax County
23934,Cullen,Charlotte County
22701,Culpeper,Culpeper County
23040,Cumberland,Cumberland County
22448,Dahlgren,King George County
22193,Dale City,Prince William
24083,Daleville,Botetourt County
24236,Damascus,Washington County
24237,Dante,Dickenson County
24540,Danville,Danville City
24541,Danville,Danville City
24543,Danville,Danville City
24544,Danville,Danville City
24239,Davenport,Buchanan County
23345,Davis Wharf,Accomack County
22821,Dayton,Rockingham County
24432,Deerfield,Augusta County
20144,Delaplane,Fauquier County
23043,Deltaville,Middlesex County
23839,Dendron,Surry County
23840,Dewitt,Dinwiddie County
20598,Dhs,Fairfax County
23045,Diggs,Mathews County
23936,Dillwyn,Buckingham County
23841,Dinwiddie,Dinwiddie County
23842,Disputanta,Prince George County
24433,Doe Hill,Highland County
22451,Dogue,King George County
23843,Dolphin,Brunswick County
24612,Doran,Tazewell County
23047,Doswell,Hanover County
23937,Drakes Branch,Charlotte County
24324,Draper,Pulaski County
23844,Drewryville,Southampton County
24549,Dry Fork,Pittsylvania County
24243,Dryden,Lee County
24084,Dublin,Pulaski County
24244,Duffield,Scott County
24325,Dugspur,Carroll County
20101,Dulles,Loudoun County
20102,Dulles,Loudoun County
20103,Dulles,Loudoun County
20104,Dulles,Loudoun County
20189,Dulles,Loudoun County
20199,Dulles,Loudoun County
20166,Dulles,Loudoun County
22025,Dumfries,Prince William County
22026,Dumfries,Prince William County
23938,Dundas,Brunswick County
24245,Dungannon,Scott County
22027,Dunn Loring,Fairfax County
22454,Dunnsville,Essex County
23050,Dutton,Mathews County
22935,Dyke,Greene County
24085,Eagle Rock,Botetourt County
22936,Earlysville,Albemarle County
24246,East Stone Gap,Wise County
23347,Eastville,Northampton County
23845,Ebony,Brunswick County
22824,Edinburg,Shenandoah County
22456,Edwardsville,Northumberland County
24086,Eggleston,Giles County
23846,Elberon,Surry County
24326,Elk Creek,Grayson County
22827,Elkton,Rockingham County
22718,Elkwood,Culpeper County
24087,Elliston,Montgomery County
24327,Emory,Washington County
23847,Emporia,Emporia City
22937,Esmont,Albemarle County
22719,Etlan,Madison County
23803,Ettrick,Chesterfield
23939,Evergreen,Appomattox County
24550,Evington,Campbell County
24248,Ewing,Lee County
23350,Exmore,Northampton County
22938,Faber,Nelson County
22030,Fairfax,Fairfax County
22031,Fairfax,Fairfax County
22032,Fairfax,Fairfax County
22033,Fairfax,Fairfax County
22034,Fairfax,Fairfax City
22035,Fairfax,Fairfax City
22036,Fairfax,Fairfax City
22037,Fairfax,Fairfax City
22038,Fairfax,Fairfax City
22039,Fairfax Station,Fairfax County
24435,Fairfield,Rockbridge County
22040,Falls Church,Falls Church City
22041,Falls Church,Fairfax County
22042,Falls Church,Fairfax County
22043,Falls Church,Fairfax County
22044,Falls Church,Fairfax County
22046,Falls Church,Falls Church City
22047,Falls Church,Falls Church City
24613,Falls Mills,Tazewell County
22405,Falmouth,Stafford County
22406,Falmouth,Stafford County
24328,Fancy Gap,Carroll County
23901,Farmville,Prince Edward County
23909,Farmville,Prince Edward County
22460,Farnham,Richmond County
24088,Ferrum,Franklin County
24089,Fieldale,Henry County
24090,Fincastle,Botetourt County
22626,Fishers Hill,Shenandoah County
22939,Fishersville,Augusta County
22627,Flint Hill,Rappahannock County
24091,Floyd,Floyd County
23850,Ford,Dinwiddie County
24551,Forest,Bedford County
23055,Fork Union,Fluvanna County
22427,Fort A P Hill,Caroline
22060,Fort Belvoir,Fairfax County
24250,Fort Blackmore,Scott County
24437,Fort Defiance,Augusta County
23604,Fort Eustis,Newport News City
23801,Fort Lee,Prince George County
23941,Fort Mitchell,Lunenburg County
23651,Fort Monroe,Hampton City
22211,Fort Myer,Arlington County
23459,Fort Story,Virginia Beach City
22652,Fort Valley,Shenandoah County
23056,Foster,Mathews County
23851,Franklin,Franklin City
23354,Franktown,Northampton County
22401,Fredericksburg,Fredericksburg City
22402,Fredericksburg,Fredericksburg City
22403,Fredericksburg,Fredericksburg City
22404,Fredericksburg,Fredericksburg City
22405,Fredericksburg,Stafford County
22406,Fredericksburg,Stafford County
22407,Fredericksburg,Spotsylvania County
22408,Fredericksburg,Spotsylvania County
22412,Fredericksburg,Fredericksburg City
22940,Free Union,Albemarle County
23856,Freeman,Brunswick County
24330,Fries,Grayson County
22630,Front Royal,Warren County
22830,Fulks Run,Rockingham County
20155,Gainesville,Prince William County
20156,Gainesville,Prince William County
24333,Galax,Galax City
22463,Garrisonville,Stafford County
23857,Gasburg,Brunswick County
24251,Gate City,Scott County
24092,Glade Hill,Franklin County
24340,Glade Spring,Washington County
24553,Gladstone,Amherst County
24554,Gladys,Campbell County
24555,Glasgow,Rockbridge County
23058,Glen Allen,Henrico County
23059,Glen Allen,Hanover County
23060,Glen Allen,Henrico County
24093,Glen Lyn,Giles County
24438,Glen Wilton,Botetourt County
23061,Gloucester,Gloucester County
23062,Gloucester Point,Gloucester County
22720,Goldvein,Fauquier County
23063,Goochland,Goochland County
24556,Goode,Bedford County
24095,Goodview,Bedford County
22942,Gordonsville,Louisa County
22637,Gore,Frederick County
24439,Goshen,Rockbridge County
22721,Graves Mill,Madison County
22066,Great Falls,Fairfax County
23942,Green Bay,Prince Edward County
23356,Greenbackville,Accomack County
23357,Greenbush,Accomack County
24440,Greenville,Augusta County
22067,Greenway,Fairfax County
22943,Greenwood,Albemarle County
24557,Gretna,Pittsylvania County
23064,Grimstead,Mathews County
24441,Grottoes,Rockingham County
24614,Grundy,Buchanan County
23065,Gum Spring,Goochland County
23066,Gwynn,Mathews County
23358,Hacksneck,Accomack County
23067,Hadensville,Goochland County
22469,Hague,Westmoreland County
24558,Halifax,Halifax County
23068,Hallieford,Mathews County
23359,Hallwood,Accomack County
20158,Hamilton,Loudoun County
20159,Hamilton,Loudoun County
23943,Hampden Sydney,Prince Edward County
23630,Hampton,Hampton City
23661,Hampton,Hampton City
23663,Hampton,Hampton City
23664,Hampton,Hampton City
23665,Hampton,Hampton City
23666,Hampton,Hampton City
23667,Hampton,Hampton City
23668,Hampton,Hampton City
23669,Hampton,Hampton City
23670,Hampton,Hampton City
23681,Hampton,Hampton City
23069,Hanover,Hanover County
23389,Harborton,Accomack County
24101,Hardy,Franklin County
23070,Hardyville,Middlesex County
22801,Harrisonburg,Harrisonburg City
22802,Harrisonburg,Rockingham County
22803,Harrisonburg,Harrisonburg City
22807,Harrisonburg,Harrisonburg City
23071,Hartfield,Middlesex County
22471,Hartwood,Stafford County
23072,Hayes,Gloucester County
20168,Haymarket,Prince William County
20169,Haymarket,Prince William County
22472,Haynesville,Richmond County
24256,Haysi,Dickenson County
22722,Haywood,Madison County
24442,Head Waters,Highland County
22473,Heathsville,Northumberland County
23075,Henrico,Henrico County
23228,Henrico,Henrico County
23229,Henrico,Henrico County
23231,Henrico,Henrico County
23233,Henrico,Henrico County
23238,Henrico,Henrico County
23242,Henrico,Henrico County
23255,Henrico,Henrico County
23273,Henrico,Henrico County
23288,Henrico,Henrico County
23294,Henrico,Henrico County
23059,Henrico,Henrico County
24102,Henry,Franklin County
20170,Herndon,Fairfax County
20171,Herndon,Fairfax County
20172,Herndon,Fairfax County
20192,Herndon,Fairfax County
22092,Herndon,Fairfax County
22095,Herndon,Fairfax County
24343,Hillsville,Carroll County
24258,Hiltons,Scott County
22831,Hinton,Rockingham County
24347,Hiwassee,Pulaski County
24260,Honaker,Russell County
22723,Hood,Madison County
23860,Hopewell,Hopewell City
23395,Horntown,Accomack County
24619,Horsepen,McDowell County
24445,Hot Springs,Bath County
24562,Howardsville,Nelson County
24104,Huddleston,Bedford County
23076,Hudgins,Mathews County
22639,Hume,Fauquier County
22640,Huntly,Rappahannock County
24620,Hurley,Buchanan County
24563,Hurt,Pittsylvania County
22476,Hustle,Essex County
24348,Independence,Grayson County
24105,Indian Valley,Floyd County
24448,Iron Gate,Alleghany County
22480,Irvington,Lancaster County
23397,Isle Of Wight,Isle of Wight County
24350,Ivanhoe,Wythe County
23866,Ivor,Southampton County
22945,Ivy,Albemarle County
23079,Jamaica,Middlesex County
23081,Jamestown,James City County
23398,Jamesville,Northampton County
23867,Jarratt,Greensville County
23870,Jarratt,Sussex County
24565,Java,Pittsylvania County
22724,Jeffersonton,Culpeper County
23399,Jenkins Bridge,Accomack County
22481,Jersey,King George County
23083,Jetersville,Amelia County
23002,Jetersville,Amelia County
24622,Jewell Ridge,Buchanan County
24263,Jonesville,Lee County
24566,Keeling,Pittsylvania County
24624,Keen Mountain,Buchanan County
22946,Keene,Albemarle County
22832,Keezletown,Rockingham County
23401,Keller,Accomack County
23944,Kenbridge,Lunenburg County
23084,Kents Store,Fluvanna County
24265,Keokee,Lee County
22947,Keswick,Albemarle County
23947,Keysville,Charlotte County
22482,Kilmarnock,Northumberland County
23085,King And Queen Court House,King and Queen County
22485,King George,King George County
23086,King William,King William County
22488,Kinsale,Westmoreland County
23950,La Crosse,Mecklenburg County
22833,Lacey Spring,Rockingham County
23694,Lackey,York County
22501,Ladysmith,Caroline County
24351,Lambsburg,Carroll County
22503,Lancaster,Lancaster County
22507,Lancaster,Lancaster County
22504,Laneview,Essex County
23089,Lanexa,New Kent County
23665,Langley Air Force Base,York County
24352,Laurel Fork,Carroll County
23868,Lawrenceville,Brunswick County
24266,Lebanon,Russell County
20175,Leesburg,Loudoun County
20176,Leesburg,Loudoun County
20177,Leesburg,Loudoun County
20178,Leesburg,Loudoun County
22725,Leon,Madison County
24450,Lexington,Rockbridge County
23090,Lightfoot,James City
22726,Lignum,Culpeper County
20160,Lincoln,Loudoun County
22642,Linden,Warren County
22834,Linville,Rockingham County
23091,Little Plymouth,King and Queen County
22507,Lively,Lancaster County
22948,Locust Dale,Madison County
22508,Locust Grove,Orange County
23092,Locust Hill,Middlesex County
23404,Locustville,Accomack County
24569,Long Island,Pittsylvania County
22509,Loretto,Essex County
22079,Lorton,Fairfax County
22199,Lorton,Fairfax County
22511,Lottsburg,Northumberland County
23093,Louisa,Louisa County
20180,Lovettsville,Loudoun County
22949,Lovingston,Nelson County
24457,Low Moor,Alleghany County
24570,Lowry,Bedford County
23952,Lunenburg,Lunenburg County
22835,Luray,Page County
24571,Lynch Station,Campbell County
24501,Lynchburg,Lynchburg City
24502,Lynchburg,Lynchburg City
24503,Lynchburg,Lynchburg City
24504,Lynchburg,Lynchburg City
24505,Lynchburg,Lynchburg City
24506,Lynchburg,Lynchburg City
24512,Lynchburg,Lynchburg City
24513,Lynchburg,Lynchburg City
24514,Lynchburg,Lynchburg City
24515,Lynchburg,Lynchburg City
22952,Lyndhurst,Augusta County
23405,Machipongo,Northampton County
23101,Macon,Powhatan County
22727,Madison,Madison County
24572,Madison Heights,Amherst County
23102,Maidens,Goochland County
23103,Manakin Sabot,Goochland County
20108,Manassas,Manassas City
20109,Manassas,Prince William County
20110,Manassas,Manassas City
20111,Manassas,Manassas Park City
20112,Manassas,Prince William County
20113,Manassas,Manassas City
23105,Mannboro,Amelia County
23106,Manquin,King William County
23407,Mappsville,Accomack County
24354,Marion,Smyth County
23408,Marionville,Northampton County
22643,Markham,Fauquier County
20115,Marshall,Fauquier County
20116,Marshall,Fauquier County
24112,Martinsville,Martinsville City
24113,Martinsville,Martinsville City
24114,Martinsville,Martinsville City
24115,Martinsville,Martinsville City
23107,Maryus,Gloucester County
23108,Mascot,King and Queen County
23109,Mathews,Mathews County
23803,Matoaca,Petersburg City
23110,Mattaponi,King and Queen County
22644,Maurertown,Shenandoah County
24627,Mavisdale,Buchanan County
24360,Max Meadows,Wythe County
24628,Maxie,Buchanan County
24269,Mc Clure,Dickenson County
24111,Mc Coy,Pulaski County
24458,Mc Dowell,Highland County
22840,Mc Gaheysville,Rockingham County
23872,Mc Kenney,Dinwiddie County
22101,Mc Lean,Fairfax County
22102,Mc Lean,Fairfax County
22106,Mc Lean,Fairfax County
22107,Mc Lean,Fairfax County
22108,Mc Lean,Fairfax County
22109,Mc Lean,Fairfax County
24458,Mc Dowell,Highland County
22840,Mc Gaheysville,Rockingham County
23872,Mc Kenney,Dinwiddie County
22101,Mc Lean,Fairfax County
22102,Mc Lean,Fairfax County
24120,Meadows Of Dan,Patrick County
24361,Meadowview,Washington County
23409,Mears,Accomack County
23111,Mechanicsville,Hanover County
23116,Mechanicsville,Hanover County
23954,Meherrin,Prince Edward County
23410,Melfa,Accomack County
24270,Mendota,Washington County
23873,Meredithville,Brunswick County
22081,Merrifield,Fairfax County
22082,Merrifield,Fairfax County
22116,Merrifield,Fairfax County
22118,Merrifield,Fairfax County
22119,Merrifield,Fairfax County
22120,Merrifield,Fairfax County
22513,Merry Point,Lancaster County
24459,Middlebrook,Augusta County
20117,Middleburg,Loudoun County
20118,Middleburg,Loudoun County
22645,Middletown,Frederick County
22649,Middletown,Frederick County
22728,Midland,Fauquier County
23112,Midlothian,Chesterfield County
23113,Midlothian,Chesterfield County
23114,Midlothian,Chesterfield County
22514,Milford,Caroline County
24460,Millboro,Bath County
23115,Millers Tavern,Essex County
22646,Millwood,Clarke County
22508,Mine Run,Orange County
23117,Mineral,Louisa County
24463,Mint Spring,Augusta County
22729,Mitchells,Culpeper County
23412,Modest Town,Accomack County
22517,Mollusk,Lancaster County
24121,Moneta,Bedford County
24574,Monroe,Amherst County
24464,Montebello,Nelson County
24465,Monterey,Highland County
23192,Montpelier,Hanover County
22957,Montpelier Station,Orange County
22520,Montross,Westmoreland County
24122,Montvale,Bedford County
23119,Moon,Mathews County
22523,Morattico,Lancaster County
23120,Moseley,Chesterfield County
22841,Mount Crawford,Rockingham County
22524,Mount Holly,Westmoreland County
22842,Mount Jackson,Shenandoah County
24467,Mount Sidney,Augusta County
22843,Mount Solon,Augusta County
22121,Mount Vernon,Fairfax County
24363,Mouth Of Wilson,Grayson County
24468,Mustoe,Highland County
24124,Narrows,Giles County
24576,Naruna,Campbell County
23413,Nassawadox,Northampton County
24577,Nathalie,Halifax County
24578,Natural Bridge,Rockbridge County
24579,Natural Bridge Station,Rockbridge County
22958,Nellysford,Nelson County
24580,Nelson,Mecklenburg County
23414,Nelsonia,Accomack County
23123,New Canton,Buckingham County
24127,New Castle,Craig County
23415,New Church,Accomack County
24469,New Hope,Augusta County
23124,New Kent,New Kent County
22844,New Market,Shenandoah County
23125,New Point,Mathews County
24129,New River,Pulaski County
24126,Newbern,Pulaski County
22122,Newington,Fairfax County
24128,Newport,Giles County
23601,Newport News,Newport News City
23602,Newport News,Newport News City
23603,Newport News,Newport News City
23605,Newport News,Newport News City
23606,Newport News,Newport News City
23607,Newport News,Newport News City
23608,Newport News,Newport News City
23609,Newport News,Newport News City
23612,Newport News,Newport News City
23628,Newport News,Newport News City
23874,Newsoms,Southampton County
23126,Newtown,King and Queen County
24271,Nickelsville,Scott County
22526,Ninde,King George County
20181,Nokesville,Prince William County
20182,Nokesville,Prince William County
24272,Nora,Dickenson County
23501,Norfolk,Norfolk City
23502,Norfolk,Norfolk City
23503,Norfolk,Norfolk City
23504,Norfolk,Norfolk City
23505,Norfolk,Norfolk City
23506,Norfolk,Norfolk City
23507,Norfolk,Norfolk City
23508,Norfolk,Norfolk City
23509,Norfolk,Norfolk City
23510,Norfolk,Norfolk City
23511,Norfolk,Norfolk City
23512,Norfolk,Norfolk City
23513,Norfolk,Norfolk City
23514,Norfolk,Norfolk City
23515,Norfolk,Norfolk City
23517,Norfolk,Norfolk City
23518,Norfolk,Norfolk City
23519,Norfolk,Norfolk City
23520,Norfolk,Norfolk City
23521,Norfolk,Virginia Beach City
23523,Norfolk,Norfolk City
23529,Norfolk,Norfolk City
23541,Norfolk,Norfolk City
23551,Norfolk,Norfolk City
23127,Norge,James City County
23128,North,Mathews County
22959,North Garden,Albemarle County
24630,North Tazewell,Tazewell County
24273,Norton,Norton City
24581,Norwood,Nelson County
23955,Nottoway,Nottoway County
22528,Nuttsville,Lancaster County
23396,Oak Hall,Accomack County
23416,Oak Hall,Accomack County
22730,Oakpark,Madison County
22124,Oakton,Fairfax County
24631,Oakwood,Buchanan County
22125,Occoquan,Prince William County
23129,Oilville,Goochland County
22529,Oldhams,Westmoreland County
23417,Onancock,Accomack County
23130,Onemo,Mathews County
23418,Onley,Accomack County
22530,Ophelia,Northumberland County
22960,Orange,Orange County
23131,Ordinary,Gloucester County
24130,Oriskany,Botetourt County
22845,Orkney Springs,Shenandoah County
20128,Orlean,Fauquier County
23419,Oyster,Northampton County
20129,Paeonian Springs,Loudoun County
24131,Paint Bank,Craig County
23420,Painter,Accomack County
22963,Palmyra,Fluvanna County
23958,Pamplin,Appomattox County
20130,Paris,Clarke County
23421,Parksley,Accomack County
24132,Parrott,Pulaski County
22534,Partlow,Spotsylvania County
24133,Patrick Springs,Patrick County
24134,Pearisburg,Giles County
24136,Pembroke,Giles County
24137,Penhook,Franklin County
22846,Penn Laird,Rockingham County
24277,Pennington Gap,Lee County
23803,Petersburg,Petersburg City
23804,Petersburg,Petersburg City
23805,Petersburg,Prince George County
23959,Phenix,Charlotte County
20131,Philomont,Loudoun County
24634,Pilgrims Knob,Buchanan County
24138,Pilot,Montgomery County
22964,Piney River,Nelson County
24139,Pittsville,Pittsylvania County
22848,Pleasant Valley,Rockingham County
24635,Pocahontas,Tazewell County
23662,Poquoson,Poquoson City
23138,Port Haywood,Mathews County
24471,Port Republic,Rockingham County
22535,Port Royal,Caroline County
23701,Portsmouth,Portsmouth City
23702,Portsmouth,Portsmouth City
23703,Portsmouth,Portsmouth City
23704,Portsmouth,Portsmouth City
23705,Portsmouth,Portsmouth City
23707,Portsmouth,Portsmouth City
23708,Portsmouth,Portsmouth City
23709,Portsmouth,Portsmouth City
24279,Pound,Wise County
24637,Pounding Mill,Tazewell County
23139,Powhatan,Powhatan County
22731,Pratts,Madison County
23875,Prince George,Prince George County
22192,Woodbridge,Prince William County
23960,Prospect,Prince Edward County
23140,Providence Forge,New Kent County
24301,Pulaski,Pulaski County
23422,Pungoteague,Accomack County
20132,Purcellville,Loudoun County
20134,Purcellville,Loudoun County
22134,Quantico,Prince William County
22135,Quantico,Prince William County
22847,Quicksburg,Shenandoah County
23423,Quinby,Accomack County
22965,Quinque,Greene County
23141,Quinton,New Kent County
24141,Radford,Radford City
24142,Radford,Radford City
24143,Radford,Radford City
22732,Radiant,Madison County
23962,Randolph,Charlotte County
24472,Raphine,Rockbridge County
22733,Rapidan,Culpeper County
22538,Rappahannock Academy,Caroline County
24639,Raven,Tazewell County
23876,Rawlings,Brunswick County
20140,Rectortown,Fauquier County
24640,Red Ash,Tazewell County
23963,Red House,Charlotte County
23964,Red Oak,Charlotte County
24146,Redwood,Franklin County
22539,Reedville,Northumberland County
22734,Remington,Fauquier County
23424,Rescue,Isle of Wight County
20190,Reston,Fairfax County
20191,Reston,Fairfax County
20193,Reston,Fairfax County
20194,Reston,Fairfax County
20195,Reston,Fairfax County
20196,Reston,Fairfax County
22096,Reston,Fairfax County
22735,Reva,Culpeper County
22542,Rhoadesville,Orange County
23966,Rice,Prince Edward County
24147,Rich Creek,Giles County
22736,Richardsville,Culpeper County
24641,Richlands,Tazewell County
23218,Richmond,Richmond City
23219,Richmond,Richmond City
23220,Richmond,Richmond City
23221,Richmond,Richmond City
23222,Richmond,Richmond City
23223,Richmond,Henrico County
23224,Richmond,Richmond City
23225,Richmond,Richmond City
23226,Richmond,Richmond City
23227,Richmond,Henrico County
23230,Richmond,Henrico County
23232,Richmond,Richmond City
23234,Richmond,Chesterfield County
23235,Richmond,Chesterfield County
23236,Richmond,Chesterfield County
23237,Richmond,Chesterfield County
23240,Richmond,Richmond City
23241,Richmond,Richmond City
23249,Richmond,Richmond City
23250,Richmond,Henrico County
23260,Richmond,Richmond City
23261,Richmond,Richmond City
23269,Richmond,Richmond City
23274,Richmond,Richmond City
23276,Richmond,Richmond City
23278,Richmond,Richmond City
23279,Richmond,Richmond City
23282,Richmond,Richmond City
23284,Richmond,Richmond City
23285,Richmond,Richmond City
23286,Richmond,Richmond City
23289,Richmond,Richmond City
23290,Richmond,Richmond City
23291,Richmond,Richmond City
23292,Richmond,Richmond City
23293,Richmond,Richmond City
23295,Richmond,Richmond City
23297,Richmond,Richmond City
23298,Richmond,Richmond City
23228,Richmond,Henry County
23231,Richmond,Henry County
23233,Richmond,Henry County
23227,Richmond,Henry County
23294,Richmond,Henry County
24148,Ridgeway,Henry County
22650,Rileyville,Page County
24149,Riner,Montgomery County
24586,Ringgold,Pittsylvania County
24150,Ripplemead,Giles County
22737,Rixeyville,Culpeper County
24001,Roanoke,Roanoke City
24002,Roanoke,Roanoke City
24003,Roanoke,Roanoke City
24004,Roanoke,Roanoke City
24005,Roanoke,Roanoke City
24006,Roanoke,Roanoke City
24007,Roanoke,Roanoke City
24008,Roanoke,Roanoke City
24009,Roanoke,Roanoke City
24010,Roanoke,Roanoke City
24011,Roanoke,Roanoke City
24012,Roanoke,Roanoke City
24013,Roanoke,Roanoke City
24014,Roanoke,Roanoke City
24015,Roanoke,Roanoke City
24016,Roanoke,Roanoke City
24017,Roanoke,Roanoke City
24018,Roanoke,Roanoke County
24019,Roanoke,Roanoke County
24020,Roanoke,Roanoke City
24022,Roanoke,Roanoke City
24023,Roanoke,Roanoke City
24024,Roanoke,Roanoke City
24025,Roanoke,Roanoke City
24026,Roanoke,Roanoke City
24027,Roanoke,Roanoke City
24028,Roanoke,Roanoke City
24029,Roanoke,Roanoke City
24030,Roanoke,Roanoke City
24031,Roanoke,Roanoke City
24032,Roanoke,Roanoke City
24033,Roanoke,Roanoke City
24034,Roanoke,Roanoke City
24035,Roanoke,Roanoke City
24036,Roanoke,Roanoke City
24037,Roanoke,Roanoke City
24038,Roanoke,Roanoke City
24040,Roanoke,Roanoke City
24042,Roanoke,Roanoke City
24043,Roanoke,Roanoke City
24044,Roanoke,Roanoke City
24045,Roanoke,Roanoke City
24048,Roanoke,Roanoke City
24050,Roanoke,Roanoke City
24155,Roanoke,Roanoke City
24157,Roanoke,Roanoke City
22738,Rochelle,Madison County
24473,Rockbridge Baths,Rockbridge County
23146,Rockville,Hanover County
24366,Rocky Gap,Bland County
24151,Rocky Mount,Franklin County
22544,Rollins Fork,King George County
24281,Rose Hill,Lee County
24280,Rosedale,Russell County
22967,Roseland,Nelson County
20141,Round Hill,Loudoun County
20142,Round Hill,Loudoun County
24646,Rowe,Buchanan County
22545,Ruby,Stafford County
22968,Ruckersville,Greene County
24368,Rural Retreat,Wythe County
24588,Rustburg,Campbell County
22546,Ruther Glen,Caroline County
23147,Ruthville,Charles City
24282,Saint Charles,Lee County
24283,Saint Paul,Wise County
23148,Saint Stephens Church,King and Queen County
24153,Salem,Salem City
24370,Saltville,Smyth County
23149,Saluda,Gloucester County
23150,Sandston,Henrico County
23153,Sandy Hook,Goochland County
24161,Sandy Level,Pittsylvania County
22577,Sandy Point,Westmoreland County
23426,Sanford,Accomack County
23967,Saxe,Charlotte County
23427,Saxis,Accomack County
23154,Schley,Gloucester County
22969,Schuyler,Nelson County
24589,Scottsburg,Halifax County
24590,Scottsville,Fluvanna County
23696,Seaford,York County
22547,Sealston,King George County
23429,Seaview,Northampton County
23878,Sedley,Southampton County
24474,Selma,Alleghany County
23155,Severn,Gloucester County
23156,Shacklefords,King and Queen County
22548,Sharps,Richmond County
24162,Shawsville,Montgomery County
22849,Shenandoah,Page County
22971,Shipman,Nelson County
24647,Shortt Gap,Buchanan County
22850,Singers Glen,Rockingham County
23879,Skippers,Greensville County
23968,Skipwith,Mecklenburg County
23430,Smithfield,Isle of Wight County
23431,Smithfield,Isle of Wight County
22972,Somerset,Orange County
22739,Somerville,Fauquier County
24592,South Boston,Halifax County
23970,South Hill,Mecklenburg County
22552,Sparta,Caroline County
24374,Speedwell,Wythe County
24165,Spencer,Henry County
22740,Sperryville,Rappahannock County
22551,Spotsylvania,Spotsylvania County
22553,Spotsylvania,Spotsylvania County
24593,Spout Spring,Appomattox County
23881,Spring Grove,Surry County
22150,Springfield,Fairfax County
22151,Springfield,Fairfax County
22152,Springfield,Fairfax County
22153,Springfield,Fairfax County
22156,Springfield,Fairfax County
22158,Springfield,Fairfax County
22159,Springfield,Fairfax County
22160,Springfield,Fairfax County
22161,Springfield,Fairfax County
22554,Stafford,Stafford County
22555,Stafford,Stafford County
22556,Stafford,Stafford County
24167,Staffordsville,Giles County
22973,Stanardsville,Greene County
22851,Stanley,Page County
24168,Stanleytown,Henry County
22654,Star Tannery,Frederick County
23160,State Farm,Goochland County
24401,Staunton,Staunton City
24402,Staunton,Staunton City
24476,Steeles Tavern,Augusta County
22655,Stephens City,Frederick County
22656,Stephenson,Frederick County
20163,Sterling,Loudoun County
20164,Sterling,Loudoun County
20165,Sterling,Loudoun County
20166,Sterling,Loudoun County
20167,Sterling,Loudoun County
22741,Stevensburg,Culpeper County
23161,Stevensville,King and Queen County
23882,Stony Creek,Sussex County
22641,Strasburg,Shenandoah County
22657,Strasburg,Shenandoah County
22558,Stratford,Westmoreland County
24171,Stuart,Patrick County
24477,Stuarts Draft,Augusta County
23162,Studley,Hanover County
23432,Suffolk,Suffolk City
23433,Suffolk,Suffolk City
23434,Suffolk,Suffolk City
23435,Suffolk,Suffolk City
23436,Suffolk,Suffolk City
23437,Suffolk,Suffolk City
23438,Suffolk,Suffolk City
23439,Suffolk,Suffolk City
24375,Sugar Grove,Smyth County
22742,Sumerduck,Fauquier County
23883,Surry,Surry County
23163,Susan,Mathews County
23884,Sussex,Sussex County
23885,Sutherland,Dinwiddie County
24594,Sutherlin,Halifax County
24595,Sweet Briar,Amherst County
24479,Swoope,Augusta County
24649,Swords Creek,Russell County
22743,Syria,Madison County
23693,Tabb,York County
23440,Tangier,Accomack County
24377,Tannersville,Tazewell County
22560,Tappahannock,Essex County
23441,Tasley,Accomack County
24651,Tazewell,Tazewell County
23442,Temperanceville,Accomack County
24174,Thaxton,Bedford County
20198,The Plains,Fauquier County
22565,Thornburg,Spotsylvania County
22853,Timberville,Rockingham County
23168,Toano,James City County
22660,Toms Brook,Shenandoah County
23169,Topping,Middlesex County
23443,Townsend,Northampton County
23170,Trevilians,Louisa County
22172,Triangle,Prince William County
24378,Troutdale,Grayson County
24175,Troutville,Botetourt County
22974,Troy,Fluvanna County
22976,Tyro,Nelson County
24176,Union Hall,Franklin County
22567,Unionville,Orange County
23173,University Of Richmond,Richmond City
20184,Upperville,Fauquier County
20185,Upperville,Fauquier County
23175,Urbanna,Middlesex County
23887,Valentines,Brunswick County
24656,Vansant,Buchanan County
24614,Grundy,Buchanan County
24597,Vernon Hill,Halifax County
24482,Verona,Augusta County
24177,Vesta,Patrick County
24483,Vesuvius,Rockbridge County
23974,Victoria,Lunenburg County
22180,Vienna,Fairfax County
22181,Vienna,Fairfax County
22182,Vienna,Fairfax County
22183,Vienna,Fairfax County
22184,Vienna,Fairfax County
22185,Vienna,Fairfax County
22746,Viewtown,Rappahannock County
22570,Village,Richmond County
24178,Villamont,Bedford County
24179,Vinton,Roanoke County
24598,Virgilina,Halifax County
23450,Virginia Beach,Virginia Beach City
23451,Virginia Beach,Virginia Beach City
23452,Virginia Beach,Virginia Beach City
23453,Virginia Beach,Virginia Beach City
23454,Virginia Beach,Virginia Beach City
23455,Virginia Beach,Virginia Beach City
23456,Virginia Beach,Virginia Beach City
23457,Virginia Beach,Virginia Beach City
23458,Virginia Beach,Virginia Beach City
23459,Virginia Beach,Virginia Beach City
23460,Virginia Beach,Virginia Beach City
23461,Virginia Beach,Virginia Beach City
23462,Virginia Beach,Virginia Beach City
23463,Virginia Beach,Virginia Beach City
23464,Virginia Beach,Virginia Beach City
23465,Virginia Beach,Virginia Beach City
23466,Virginia Beach,Virginia Beach City
23467,Virginia Beach,Virginia Beach City
23471,Virginia Beach,Virginia Beach City
23479,Virginia Beach,Virginia Beach City
23806,Virginia State University,Petersburg City
23480,Wachapreague,Accomack County
23176,Wake,Middlesex County
23888,Wakefield,Sussex County
23177,Walkerton,King and Queen County
23337,Wallops Island,Accomack County
23482,Wardtown,Northampton County
23178,Ware Neck,Gloucester County
23889,Warfield,Brunswick County
24484,Warm Springs,Bath County
20186,Warrenton,Fauquier County
20187,Warrenton,Fauquier County
20188,Warrenton,Fauquier County
22572,Warsaw,Richmond County
22747,Washington,Rappahannock County
23180,Water View,Middlesex County
20197,Waterford,Loudoun County
23483,Wattsville,Accomack County
23890,Waverly,Sussex County
23891,Waverly,Sussex County
22980,Waynesboro,Waynesboro City
24290,Weber City,Scott County
22576,Weems,Lancaster County
24485,West Augusta,Augusta County
22103,West Mclean,Fairfax County
23181,West Point,King William County
24486,Weyers Cave,Augusta County
22987,White Hall,Albemarle County
23183,White Marsh,Gloucester County
23893,White Plains,Brunswick County
22663,White Post,Clarke County
22578,White Stone,Lancaster County
24292,Whitetop,Grayson County
24657,Whitewood,Buchanan County
23184,Wicomico,Gloucester County
22579,Wicomico Church,Northumberland County
23185,Williamsburg,Williamsburg City
23186,Williamsburg,Williamsburg City
23187,Williamsburg,Williamsburg City
23188,Williamsburg,James City County
24487,Williamsville,Bath County
24380,Willis,Floyd County
23486,Willis Wharf,Northampton County
23894,Wilsons,Dinwiddie County
22601,Winchester,Winchester City
22602,Winchester,Frederick County
22603,Winchester,Frederick County
22604,Winchester,Winchester City
23487,Windsor,Isle of Wight County
24599,Wingina,Nelson County
24184,Wirtz,Franklin County
24293,Wise,Wise County
23488,Withams,Accomack County
24658,Wolford,Buchanan County
22748,Wolftown,Madison County
22989,Woodberry Forest,Madison County
22191,Woodbridge,Prince William County
22192,Woodbridge,Prince William County
22193,Woodbridge,Prince William County
22194,Woodbridge,Prince William County
22195,Woodbridge,Prince William County
22580,Woodford,Caroline County
24381,Woodlawn,Carroll County
23190,Woods Cross Roads,Gloucester County
22664,Woodstock,Shenandoah County
22749,Woodville,Rappahannock County
24185,Woolwine,Patrick County
23976,Wylliesburg,Charlotte County
24382,Wytheville,Wythe County
23897,Yale,Sussex County
23690,Yorktown,York County
23691,Yorktown,York County
23692,Yorktown,York County
23693,Yorktown,York County
22581,Zacata,Westmoreland County
23898,Zuni,Isle of Wight County