fed_provider_num,lat,long,provider_name,provider_address,provider_city,provider_state,provider_zip_code,provider_address_full
495002,37.233942,-79.9729052,SOUTH ROANOKE NURSING HOME INC,"3823 FRANKLIN RD, SW",ROANOKE,VA,24014,"3823 FRANKLIN RD, SW ROANOKE VA 24014"
495011,38.7349122,-77.0590098,MANORCARE HEALTH SERVICES-ALEXANDRIA,1510 COLLINGWOOD ROAD,ALEXANDRIA,VA,22308,1510 COLLINGWOOD ROAD ALEXANDRIA VA 22308
495013,37.2798197,-80.1255163,RICHFIELD RECOVERY &  CARE CENTER,3615 WEST MAIN STREET,SALEM,VA,24153,3615 WEST MAIN STREET SALEM VA 24153
495015,36.6209283,-79.3827201,ROMAN EAGLE REHABILITATION AND HEALTH CARE CENTER,2526 NORTH MAIN STREET,DANVILLE,VA,24540,2526 NORTH MAIN STREET DANVILLE VA 24540
495019,38.8162249,-77.0719611,WOODBINE REHABILITATION & HEALTHCARE CENTER,2729 KING ST,ALEXANDRIA,VA,22302,2729 KING ST ALEXANDRIA VA 22302
495034,37.7808777,-79.459841,KENDAL  AT LEXINGTON,160 KENDAL DRIVE,LEXINGTON,VA,24450,160 KENDAL DRIVE LEXINGTON VA 24450
495038,38.7714104,-77.5005331,MANASSAS HEALTH AND REHAB CENTER,8575 RIXLEW LANE,MANASSAS,VA,20109,8575 RIXLEW LANE MANASSAS VA 20109
495045,37.6154708,-77.4722138,MANORCARE HEALTH SERVICES-RICHMOND,2125 HILLIARD ROAD,RICHMOND,VA,23228,2125 HILLIARD ROAD RICHMOND VA 23228
495046,37.3514019,-79.5175735,OAKWOOD MANOR BEDFORD MEM,1613 OAKWOOD STREET,BEDFORD,VA,24523,1613 OAKWOOD STREET BEDFORD VA 24523
495057,38.8372538,-77.1043783,GOODWIN HOUSE ALEXANDRIA,4800 FILLMORE AVE,ALEXANDRIA,VA,22311,4800 FILLMORE AVE ALEXANDRIA VA 22311
495068,36.8654723,-76.3017158,SIGNATURE HEALTHCARE OF NORFOLK,1005 HAMPTON BLVD,NORFOLK,VA,23507,1005 HAMPTON BLVD NORFOLK VA 23507
495071,37.1469752,-76.5074528,THE GARDENS AT WARWICK FOREST,1000 OLD DENBEIGH BOULEVARD,NEWPORT NEWS,VA,23602,1000 OLD DENBEIGH BOULEVARD NEWPORT NEWS VA 23602
495077,37.4126168,-79.1758838,HEARTLAND HEALTH CARE CENTER - LYNCHBURG,2200 LANDOVER PLACE,LYNCHBURG,VA,24501,2200 LANDOVER PLACE LYNCHBURG VA 24501
495079,37.3842377,-77.5073957,HEALTH CARE CENTER LUCY CORR,6800 LUCY CORR BLVD,CHESTERFIELD,VA,23832,6800 LUCY CORR BLVD CHESTERFIELD VA 23832
495085,37.3075884,-77.2888621,RIVER VIEW ON THE APPOMATTOX HEALTH & REHAB CENTER,201 EPPS STREET,HOPEWELL,VA,23860,201 EPPS STREET HOPEWELL VA 23860
495086,36.8681065,-76.0294435,BAY POINTE REHABILITATION AND NURSING,1148 FIRST COLONIAL RD,VIRGINIA BEACH,VA,23454,1148 FIRST COLONIAL RD VIRGINIA BEACH VA 23454
495087,37.2777275,-80.0219709,SALEM HEALTH & REHABILITATION,1945 ROANOKE BLVD,SALEM,VA,24153,1945 ROANOKE BLVD SALEM VA 24153
495092,37.3221986,-79.9435436,FRIENDSHIP HEALTH AND REHAB CENTER,327 HERSHBERGER RD NW,ROANOKE,VA,24012,327 HERSHBERGER RD NW ROANOKE VA 24012
495093,38.438652,-78.8565777,HARRISONBURG HLTH & REHAB CNTR,1225 RESERVOIR STREET,HARRISONBURG,VA,22801,1225 RESERVOIR STREET HARRISONBURG VA 22801
495096,37.5975427,-77.4618146,WESTMINSTER-CANTERBURY OF RICHMOND,1600 WESTBROOK AVE,RICHMOND,VA,23227,1600 WESTBROOK AVE RICHMOND VA 23227
495097,37.6394048,-77.4934091,PARHAM HEALTH CARE & REHAB CEN,2400 E PARHAM ROAD,RICHMOND,VA,23228,2400 E PARHAM ROAD RICHMOND VA 23228
495099,38.8483715,-77.3158847,FAIRFAX REHABILITATION AND NURSING CENTER,10701 MAIN STREET,FAIRFAX,VA,22030,10701 MAIN STREET FAIRFAX VA 22030
495102,38.8601875,-77.1295057,MANORCARE HEALTH SERVICES-ARLINGTON,550 SOUTH CARLIN SPRINGS ROAD,ARLINGTON,VA,22204,550 SOUTH CARLIN SPRINGS ROAD ARLINGTON VA 22204
495105,37.3682936,-79.1813942,LYNCHBURG HLTH & REHAB CNTR,5615 SEMINOLE AVENUE,LYNCHBURG,VA,24502,5615 SEMINOLE AVENUE LYNCHBURG VA 24502
495107,36.6050402,-79.4106476,PINEY FOREST HEALTH AND REHABILITATION CENTER,450 PINEY FOREST RD,DANVILLE,VA,24540,450 PINEY FOREST RD DANVILLE VA 24540
495108,36.7438135,-76.2473688,CHESAPEAKE HEALTH AND REHABILITATION CENTER,688 KINGSBOROUGH SQUARE,CHESAPEAKE,VA,23320,688 KINGSBOROUGH SQUARE CHESAPEAKE VA 23320
495109,37.6280934,-77.5707413,THE LAURELS OF UNIVERSITY PARK,2420 PEMBERTON RD,RICHMOND,VA,23233,2420 PEMBERTON RD RICHMOND VA 23233
495112,37.4378627,-79.1872903,VA BAP HOSP DIV CEN,3300 RIVERMONT AVE,LYNCHBURG,VA,24503,3300 RIVERMONT AVE LYNCHBURG VA 24503
495113,37.2159112,-77.450127,HIRAM W DAVIS MEDICAL CTR,26317 WEST WASHINGTON STREET,PETERSBURG,VA,23803,26317 WEST WASHINGTON STREET PETERSBURG VA 23803
495114,38.8583491,-77.057121,"REGENCY CARE OF ARLINGTON, LLC",1785 SOUTH HAYES STREET,ARLINGTON,VA,22202,1785 SOUTH HAYES STREET ARLINGTON VA 22202
495115,37.2645177,-77.398874,COLONIAL HEIGHTS REHABILITATION AND NURSING CENTER,831 ELLERSLIE AVE,COLONIAL HEIGHTS,VA,23834,831 ELLERSLIE AVE COLONIAL HEIGHTS VA 23834
495117,36.8669264,-76.2062659,LAKE TAYLOR HOSP,1309 KEMPSVILLE RD,NORFOLK,VA,23502,1309 KEMPSVILLE RD NORFOLK VA 23502
495118,36.9940323,-79.9028606,ROCKY MOUNT HEALTH & REHAB CENTER,300 HATCHER STREET,ROCKY MOUNT,VA,24151,300 HATCHER STREET ROCKY MOUNT VA 24151
495120,37.450515,-79.191268,WESTMINSTER-CANTERBURY -LYNCHB,501 VES RD,LYNCHBURG,VA,24503,501 VES RD LYNCHBURG VA 24503
495121,38.8957466,-77.1059967,CHERRYDALE HEALTH AND REHABILITATION CENTER,3710 LEE HIGHWAY,ARLINGTON,VA,22207,3710 LEE HIGHWAY ARLINGTON VA 22207
495123,37.2643466,-77.3249492,WONDER CITY REHABILITATION AND NURSING CENTER,905 COUSINS AVENUE,HOPEWELL,VA,23860,905 COUSINS AVENUE HOPEWELL VA 23860
495126,36.6577872,-80.9291117,WADDELL NURSING AND REHAB CENTER,202 PAINTER ST,GALAX,VA,24333,202 PAINTER ST GALAX VA 24333
495127,36.9109468,-76.0799365,WESTMINSTER-CANTERBURY ON CHESAPEAKE BAY,3100 SHORE DRIVE,VIRGINIA BEACH,VA,23451,3100 SHORE DRIVE VIRGINIA BEACH VA 23451
495131,36.5961909,-82.218724,"NHC HEALTHCARE, BRISTOL",245 NORTH STREET,BRISTOL,VA,24201,245 NORTH STREET BRISTOL VA 24201
495133,36.8029975,-81.6756611,VALLEY REHABILITATION AND NURSING CENTER,940 EAST LEE HIGHWAY,CHILHOWIE,VA,24319,940 EAST LEE HIGHWAY CHILHOWIE VA 24319
495134,36.7189846,-82.795995,RIDGECREST MANOR NURSING & REHABILITATION,157  ROSS CARTER BOULEVARD,DUFFIELD,VA,24244,157  ROSS CARTER BOULEVARD DUFFIELD VA 24244
495135,36.8760845,-82.7524975,HERITAGE HALL BIG STONE GAP,2045 VALLEY VIEW DRIVE,BIG STONE GAP,VA,24219,2045 VALLEY VIEW DRIVE BIG STONE GAP VA 24219
495139,38.6478424,-78.6637146,LIFE CARE CENTER OF NEW MARKET,315 EAST LEE HIGHWAY,NEW MARKET,VA,22844,315 EAST LEE HIGHWAY NEW MARKET VA 22844
495140,39.1471788,-77.9797091,ROSE HILL HEALTH AND REHAB,110 CHALMERS COURT,BERRYVILLE,VA,22611,110 CHALMERS COURT BERRYVILLE VA 22611
495141,37.816061,-79.8045904,ALLEGHANY HEALTH AND REHAB,1725 MAIN STREET,CLIFTON FORGE,VA,24422,1725 MAIN STREET CLIFTON FORGE VA 24422
495142,39.1721585,-78.1634797,EVERGREEN HEALTH AND REHAB,380 MILLWOOD AVENUE,WINCHESTER,VA,22601,380 MILLWOOD AVENUE WINCHESTER VA 22601
495143,36.670158,-79.8400299,MARTINSVILLE HEALTH AND REHAB,1607 SPRUCE STREET,MARTINSVILLE,VA,24112,1607 SPRUCE STREET MARTINSVILLE VA 24112
495144,37.2074924,-77.3818773,PETERSBURG HEALTHCARE CENTER,287  EAST SOUTH BOULEVARD,PETERSBURG,VA,23805,287  EAST SOUTH BOULEVARD PETERSBURG VA 23805
495146,38.4358653,-78.8855446,CHOICE HEALTHCARE AT HARRISONBURG,94 SOUTH AVENUE,HARRISONBURG,VA,22801,94 SOUTH AVENUE HARRISONBURG VA 22801
495147,38.0682442,-78.9267911,ACCORDIUS HEALTH AT WAYNESBORO LLC,1221 ROSSER AVE,WAYNESBORO,VA,22980,1221 ROSSER AVE WAYNESBORO VA 22980
495149,36.8375748,-76.3094068,PORTSMOUTH HEALTH AND REHAB,900 LONDON BOULEVARD,PORTSMOUTH,VA,23704,900 LONDON BOULEVARD PORTSMOUTH VA 23704
495150,36.8418015,-76.1081088,THE CITADEL VIRGINIA BEACH LLC,340 LYNN SHORES DRIVE,VIRGINIA BEACH,VA,23452,340 LYNN SHORES DRIVE VIRGINIA BEACH VA 23452
495151,37.4129712,-79.1824081,CHOICE HEALTHCARE AT LYNCHBURG,2081 LANGHORNE ROAD,LYNCHBURG,VA,24501,2081 LANGHORNE ROAD LYNCHBURG VA 24501
495152,37.1234116,-81.4911403,HERITAGE HALL TAZEWELL,282 BEN BOLT AVENUE,TAZEWELL,VA,24651,282 BEN BOLT AVENUE TAZEWELL VA 24651
495153,38.0569121,-78.4996313,CEDARS HEALTHCARE CENTER,1242 CEDARS CT,CHARLOTTESVILLE,VA,22903,1242 CEDARS CT CHARLOTTESVILLE VA 22903
495155,38.8371362,-77.1753867,ANNANDALE  HEALTHCARE CENTER,6700 COLUMBIA PIKE,ANNANDALE,VA,22003,6700 COLUMBIA PIKE ANNANDALE VA 22003
495156,37.2591593,-79.9482555,ACCORDIUS HEALTH AT ROANOKE,324 KING GEORGE AVE SW,ROANOKE,VA,24016,324 KING GEORGE AVE SW ROANOKE VA 24016
495157,36.6920412,-76.9375687,SOUTHAMPTON MEMORIAL HOSP,100 FAIRVIEW DR,FRANKLIN,VA,23851,100 FAIRVIEW DR FRANKLIN VA 23851
495160,37.6753605,-76.4014375,RAPPAHANNOCK WESTMINSTER CANTE,132  LANCASTER DRIVE,IRVINGTON,VA,22480,132  LANCASTER DRIVE IRVINGTON VA 22480
495165,39.2004119,-78.1748797,SHENANDOAH VLY WESTMINSTER-CANTERBURY,300 WESTMINSTER CANTERBURY DR,WINCHESTER,VA,22603,300 WESTMINSTER CANTERBURY DR WINCHESTER VA 22603
495166,36.5781752,-79.4013247,STRATFORD HEALTHCARE CENTER,508 RISON STREET,DANVILLE,VA,24541,508 RISON STREET DANVILLE VA 24541
495167,36.9546968,-81.0970348,WYTHE CNTY COMMUNITY HOSP ECU,600 W RIDGE RD,WYTHEVILLE,VA,24382,600 W RIDGE RD WYTHEVILLE VA 24382
495168,37.7506643,-79.3513547,SHENANDOAH VALLEY HEALTH AND REHAB,3737 CATALPA AVE,BUENA VISTA,VA,24416,3737 CATALPA AVE BUENA VISTA VA 24416
495171,38.8507482,-77.1205162,GOODWIN HOUSE BAILEY'S CROSSROADS,3440 S JEFFERSON STREET,FALLS CHURCH,VA,22041,3440 S JEFFERSON STREET FALLS CHURCH VA 22041
495173,36.8366959,-76.1945745,WATERSIDE HEALTH & REHAB CENTER,249  SOUTH NEWTOWN RD,NORFOLK,VA,23502,249  SOUTH NEWTOWN RD NORFOLK VA 23502
495174,38.9269836,-77.4163166,DULLES HEALTH & REHAB CENTER,2978 CENTREVILLE ROAD,HERNDON,VA,20171,2978 CENTREVILLE ROAD HERNDON VA 20171
495177,36.7340166,-78.1335044,COMMUNITY MEMORIAL HOSPITAL HUNDLEY CENTER,125 BUENA VISTA CIRCLE,SOUTH HILL,VA,23970,125 BUENA VISTA CIRCLE SOUTH HILL VA 23970
495178,38.0839998,-78.482165,CHARLOTTESVILLE HEALTH & REHABILITATION CENTER,505 WEST RIO ROAD,CHARLOTTESVILLE,VA,22901,505 WEST RIO ROAD CHARLOTTESVILLE VA 22901
495179,39.0232856,-77.3899499,POTOMAC FALLS HEALTH & REHAB CENTER,46531 HARRY BYRD HIGHWAY,STERLING,VA,20164,46531 HARRY BYRD HIGHWAY STERLING VA 20164
495181,37.0923143,-81.7782029,CLINCH VALLEY MEDICAL CENTER,2949 W FRONT ST,RICHLANDS,VA,24641,2949 W FRONT ST RICHLANDS VA 24641
495183,37.462058,-77.664205,THE HAVEN AT BRANDERMILL WOODS,2100 BRANDERMILL PKWY,MIDLOTHIAN,VA,23112,2100 BRANDERMILL PKWY MIDLOTHIAN VA 23112
495184,37.247009,-76.72486,WOODHAVEN HALL AT WILLIAMSBURG LANDING,5500 WILLIAMSBURG LANDING DR,WILLIAMSBURG,VA,23185,5500 WILLIAMSBURG LANDING DR WILLIAMSBURG VA 23185
495185,37.0394732,-77.0790208,WAVERLY REHABILITATION AND HEALTHCARE CENTER,456 E MAIN ST,WAVERLY,VA,23890,456 E MAIN ST WAVERLY VA 23890
495186,36.8067351,-76.216407,BETH SHOLOM HOME OF EASTERN VI,6401 AUBURN DR,VIRGINIA BEACH,VA,23464,6401 AUBURN DR VIRGINIA BEACH VA 23464
495187,36.7607386,-80.7314027,HILLSVILLE HEALTH & REHAB CENTER,222 FULCHER STREET,HILLSVILLE,VA,24343,222 FULCHER STREET HILLSVILLE VA 24343
495188,37.3466006,-78.8253899,APPOMATTOX HEALTH & REHABILITATON CENTER,235 EVERGREEN AVE,APPOMATTOX,VA,24522,235 EVERGREEN AVE APPOMATTOX VA 24522
495189,37.1630835,-76.4606882,REGENCY HEALTH AND REHABILITATION CENTER,112 N CONSTITUTION DR,YORKTOWN,VA,23692,112 N CONSTITUTION DR YORKTOWN VA 23692
495190,37.2415538,-76.7656404,CONSULATE HEALTHCARE OF WILLIAMSBURG,1811 JAMESTOWN ROAD,WILLIAMSBURG,VA,23185,1811 JAMESTOWN ROAD WILLIAMSBURG VA 23185
495191,37.1781208,-81.146071,BLAND COUNTY NURSING & REHABILITATION CENTER,12185 GRAPEFIELD ROAD,BASTIAN,VA,24314,12185 GRAPEFIELD ROAD BASTIAN VA 24314
495192,36.764874,-77.8365048,"ENVOY OF LAWRENCEVILLE, LLC",1722 LAWRENCEVILLE PLANK ROAD,LAWRENCEVILLE,VA,23868,1722 LAWRENCEVILLE PLANK ROAD LAWRENCEVILLE VA 23868
495193,37.5416773,-77.3102304,HENRICO HEALTH & REHABILITATION CENTER,561 NORTH AIRPORT DRIVE,HIGHLAND SPRINGS,VA,23075,561 NORTH AIRPORT DRIVE HIGHLAND SPRINGS VA 23075
495194,36.8247038,-76.3464571,AUTUMN CARE OF PORTSMOUTH,3610 WINCHESTER DR,PORTSMOUTH,VA,23707,3610 WINCHESTER DR PORTSMOUTH VA 23707
495196,37.1239186,-79.2880558,AUTUMN CARE OF ALTAVISTA,1317 LOLA AVE,ALTAVISTA,VA,24517,1317 LOLA AVE ALTAVISTA VA 24517
495197,38.7106857,-77.1899871,BELVOIR WOODS HEALTH CARE CENTER AT THE FAIRFAX,9160  BELVOIR WOODS PKWY,FORT BELVOIR,VA,22060,9160  BELVOIR WOODS PKWY FORT BELVOIR VA 22060
495199,36.7001161,-77.540946,GREENSVILLE HEALTH AND REHABILITATION CENTER,214 WEAVER AVE,EMPORIA,VA,23847,214 WEAVER AVE EMPORIA VA 23847
495200,37.2409306,-81.2441924,WESTWOOD CENTER,20 WESTWOOD MEDICAL PARK,BLUEFIELD,VA,24605,20 WESTWOOD MEDICAL PARK BLUEFIELD VA 24605
495201,36.7990814,-76.3647477,PORTSIDE HEALTH & REHAB CENTER,4201 GREENWOOD DRIVE,PORTSMOUTH,VA,23701,4201 GREENWOOD DRIVE PORTSMOUTH VA 23701
495202,36.9514119,-79.3732184,GRETNA HEALTH AND REHABILITATION CENTER,595 VADEN DRIVE,GRETNA,VA,24557,595 VADEN DRIVE GRETNA VA 24557
495203,38.8268388,-77.0754573,"ENVOY OF ALEXANDRIA, LLC",900 VIRGINIA AVENUE,ALEXANDRIA,VA,22302,900 VIRGINIA AVENUE ALEXANDRIA VA 22302
495204,37.145848,-76.509433,ST FRANCIS NURSING CTR,4 RIDGEWOOD PARKWAY,NEWPORT NEWS,VA,23602,4 RIDGEWOOD PARKWAY NEWPORT NEWS VA 23602
495205,38.8894987,-77.2218787,ILIFF NURSING AND REHABILITATION CENTER,8000 ILIFF DRIVE,DUNN LORING,VA,22027,8000 ILIFF DRIVE DUNN LORING VA 22027
495206,36.8636972,-76.4273166,BON SECOURS-MARYVIEW NURSING C,4775 BRIDGE ROAD,SUFFOLK,VA,23435,4775 BRIDGE ROAD SUFFOLK VA 23435
495207,36.9864914,-79.8869509,FRANKLIN HEALTH AND REHABILITATION CENTER,720 ORCHARD AVENUE,ROCKY MOUNT,VA,24151,720 ORCHARD AVENUE ROCKY MOUNT VA 24151
495209,37.2629378,-79.9784557,RALEIGH COURT HEALTH AND REHABILITATION CENTER,1527 GRANDIN ROAD SOUTHWEST,ROANOKE,VA,24015,1527 GRANDIN ROAD SOUTHWEST ROANOKE VA 24015
495210,36.8565415,-76.2745904,NORFOLK HEALTH AND REHABILITATION CENTER,901 EAST PRINCESS ANNE ROAD,NORFOLK,VA,23504,901 EAST PRINCESS ANNE ROAD NORFOLK VA 23504
495211,38.736375,-77.0778068,MOUNT VERNON HEALTHCARE CENTER,8111 TISWELL DRIVE,ALEXANDRIA,VA,22306,8111 TISWELL DRIVE ALEXANDRIA VA 22306
495213,36.8720388,-76.1329919,BAYSIDE HEALTH & REHABILITATION CENTER,1004 INDEPENDENCE BLVD,VIRGINIA BEACH,VA,23455,1004 INDEPENDENCE BLVD VIRGINIA BEACH VA 23455
495214,38.094358,-78.986591,AUGUSTA MEDICAL CTR SKILLED CA,78 MEDICAL CENTER DRIVE,FISHERSVILLE,VA,22939,78 MEDICAL CENTER DRIVE FISHERSVILLE VA 22939
495215,36.7492588,-76.2388596,"OAK GROVE HEALTH & REHAB CENTER, LLC",776 OAK GROVE RD PO BOX 1277,CHESAPEAKE,VA,23320,776 OAK GROVE RD PO BOX 1277 CHESAPEAKE VA 23320
495216,36.7335439,-79.9576967,STANLEYTOWN HEALTH AND REHABILITATION CENTER,240 RIVERSIDE DRIVE,BASSETT,VA,24055,240 RIVERSIDE DRIVE BASSETT VA 24055
495217,38.8722303,-77.3791518,MANORCARE HEALTH SERVICES-FAIR OAKS,12475 LEE JACKSON MEMORIAL HIGHWAY,FAIRFAX,VA,22033,12475 LEE JACKSON MEMORIAL HIGHWAY FAIRFAX VA 22033
495218,37.5222777,-79.8796239,BRIAN CENTER HEALTH AND REHABILITATION,188 OLD FINCASTLE ROAD,FINCASTLE,VA,24090,188 OLD FINCASTLE ROAD FINCASTLE VA 24090
495220,37.9993993,-79.831587,THE SPRINGS NURSING CENTER,167 SPRING STREET,HOT SPRINGS,VA,24445,167 SPRING STREET HOT SPRINGS VA 24445
495221,37.79187,-79.8815,THE BRIAN CENTER,100 ALLEGHANY REGIONAL HOSPITAL LANE,LOW MOOR,VA,24457,100 ALLEGHANY REGIONAL HOSPITAL LANE LOW MOOR VA 24457
495225,38.0277011,-78.4371229,WESTMINSTER CANTERBURY BLUE RI,250 PANTOPS MOUNTAIN RD,CHARLOTTESVILLE,VA,22911,250 PANTOPS MOUNTAIN RD CHARLOTTESVILLE VA 22911
495226,37.0360296,-78.474859,WAYLAND NURSING AND REHABILITATION CENTER,730 LUNENBURG HIGHW,KEYSVILLE,VA,23947,730 LUNENBURG HIGHW KEYSVILLE VA 23947
495227,37.6058278,-77.53319,WESTPORT REHABILITATION AND NURSING CENTER,7300 FOREST AVE,RICHMOND,VA,23226,7300 FOREST AVE RICHMOND VA 23226
495230,37.7561802,-78.2653678,ENVOY AT THE VILLAGE,4238 JAMES MADSON HIGHWAY,FORK UNION,VA,23055,4238 JAMES MADSON HIGHWAY FORK UNION VA 23055
495232,36.8023893,-76.1826758,KEMPSVILLE HEALTH & REHAB CENTER,5520 INDIAN RIVER ROAD,VIRGINIA BEACH,VA,23464,5520 INDIAN RIVER ROAD VIRGINIA BEACH VA 23464
495233,38.7146186,-77.8103703,FAUQUIER HEALTH REHABILITATION & NURSING CENTER,360 HOSPITAL DRIVE,WARRENTON,VA,20186,360 HOSPITAL DRIVE WARRENTON VA 20186
495234,36.8623384,-76.1706178,HERITAGE HALL VIRGINIA BEACH,5580 DANIEL SMITH ROAD,VIRGINIA BEACH,VA,23462,5580 DANIEL SMITH ROAD VIRGINIA BEACH VA 23462
495235,37.279696,-76.722338,"ENVOY OF WILLIAMSBURG, LLC",1235 MT VERNON AVENUE,WILLIAMSBURG,VA,23185,1235 MT VERNON AVENUE WILLIAMSBURG VA 23185
495236,37.7441017,-77.9282724,ENVOY AT THE MEADOWS,2715 DOGTOWN ROAD,GOOCHLAND,VA,23063,2715 DOGTOWN ROAD GOOCHLAND VA 23063
495237,36.8675662,-76.027035,VIRGINIA BEACH HEALTHCARE AND REHAB CENTER,1801 CAMELOT DRIVE,VIRGINIA BEACH,VA,23454,1801 CAMELOT DRIVE VIRGINIA BEACH VA 23454
495240,38.290287,-77.5254589,FREDERICKSBURG HEALTH AND REHAB,3900 PLANK ROAD,FREDERICKSBURG,VA,22407,3900 PLANK ROAD FREDERICKSBURG VA 22407
495241,36.8390769,-76.1184536,ACCORDIUS HEALTH AT RIVER POINTE LLC,4142 BONNEY ROAD,VIRGINIA BEACH,VA,23452,4142 BONNEY ROAD VIRGINIA BEACH VA 23452
495242,37.0419622,-78.9325147,HERITAGE HALL - BROOKNEAL,633 COOK AVENUE,BROOKNEAL,VA,24528,633 COOK AVENUE BROOKNEAL VA 24528
495243,38.1577289,-79.0603567,"ENVOY OF STAUNTON, LLC",512 HOUSTON STREET,STAUNTON,VA,24401,512 HOUSTON STREET STAUNTON VA 24401
495244,38.3782434,-78.2570842,AUTUMN CARE OF MADISON,NUMBER ONE AUTUMN COURT,MADISON,VA,22727,NUMBER ONE AUTUMN COURT MADISON VA 22727
495245,37.7985631,-75.599058,ARCADIA NURSING & REHAB CENT,17405 LANKFORD HIGHWAY,NELSONIA,VA,23414,17405 LANKFORD HIGHWAY NELSONIA VA 23414
495246,38.3014764,-77.4512388,WOODMONT CENTER,11 DAIRY LANE,FREDERICKSBURG,VA,22405,11 DAIRY LANE FREDERICKSBURG VA 22405
495247,36.739006,-76.5865973,ACCORDIUS HEALTH AT NANSEMOND POINTE LLC,200 WEST CONSTANCE ROAD,SUFFOLK,VA,23434,200 WEST CONSTANCE ROAD SUFFOLK VA 23434
495248,38.7858817,-77.2807872,BURKE HEALTH AND REHABILITATION CENTER,9640 BURKE LAKE ROAD,BURKE,VA,22015,9640 BURKE LAKE ROAD BURKE VA 22015
495249,37.2797323,-78.3858669,FARMVILLE HEALTH & REHAB CENTER,1575 SCOTT DRIVE  ROUTE 5,FARMVILLE,VA,23901,1575 SCOTT DRIVE  ROUTE 5 FARMVILLE VA 23901
495250,36.6799917,-80.9112251,GALAX HEALTH AND REHAB,836 GLENDALE RD,GALAX,VA,24333,836 GLENDALE RD GALAX VA 24333
495252,37.1888637,-77.3760018,BATTLEFIELD PARK HEALTHCARE CENTER,250 FLANK ROAD,PETERSBURG,VA,23805,250 FLANK ROAD PETERSBURG VA 23805
495253,36.8681786,-76.2249651,AUTUMN CARE OF NORFOLK,1401 HALSTEAD AVENUE,NORFOLK,VA,23502,1401 HALSTEAD AVENUE NORFOLK VA 23502
495254,38.061374,-78.5144366,COLONNADES HEALTH CARE CENTER,100 COLONNADES HILL DRIVE,CHARLOTTESVILLE,VA,22901,100 COLONNADES HILL DRIVE CHARLOTTESVILLE VA 22901
495255,38.6626516,-78.4731076,SKYVIEW SPRINGS REHAB AND NURSING CENTER,30 MONTVUE DRIVE,LURAY,VA,22835,30 MONTVUE DRIVE LURAY VA 22835
495256,36.741053,-76.2003348,AUTUMN CARE OF CHESAPEAKE,715 ARGYLL ST,CHESAPEAKE,VA,23320,715 ARGYLL ST CHESAPEAKE VA 23320
495257,37.5216408,-77.6155652,THE LAURELS OF WILLOW CREEK,11611 ROBIOUS ROAD,MIDLOTHIAN,VA,23113,11611 ROBIOUS ROAD MIDLOTHIAN VA 23113
495258,36.7659807,-76.5983508,AUTUMN CARE OF SUFFOLK,2580 PRUDEN BOULEVARD,SUFFOLK,VA,23434,2580 PRUDEN BOULEVARD SUFFOLK VA 23434
495259,37.2990439,-82.0579305,HERITAGE HALL GRUNDY,2966 SLATE CREEK ROAD,GRUNDY,VA,24614,2966 SLATE CREEK ROAD GRUNDY VA 24614
495260,37.5055578,-77.5257031,BEAUFONT HEALTH AND REHABILITATION CENTER,200 HIOAKS ROAD,RICHMOND,VA,23225,200 HIOAKS ROAD RICHMOND VA 23225
495261,39.1208912,-77.5713452,HERITAGE HALL LEESBURG,122 MORVEN PARK ROAD NW,LEESBURG,VA,20176,122 MORVEN PARK ROAD NW LEESBURG VA 20176
495262,38.1025695,-78.9702732,SHENANDOAH NURSING HOME,339 WESTMINISTER DRIVE,FISHERSVILLE,VA,22939,339 WESTMINISTER DRIVE FISHERSVILLE VA 22939
495264,37.1295515,-76.4034492,BAYSIDE OF POQUOSON HEALTH AND REHAB,1 VANTAGE DRIVE,POQUOSON,VA,23662,1 VANTAGE DRIVE POQUOSON VA 23662
495266,37.6226811,-77.3426272,HANOVER HEALTH AND REHABILITATION CENTER,8139 LEE DAVIS ROAD,MECHANICSVILLE,VA,23111,8139 LEE DAVIS ROAD MECHANICSVILLE VA 23111
495267,38.7324234,-77.798753,BROOKSIDE REHAB & NURSING CENTER,614 HASTINGS LANE,WARRENTON,VA,20186,614 HASTINGS LANE WARRENTON VA 20186
495268,38.2649067,-76.9824427,WESTMORELAND REHABILITATION & HEALTHCARE CENTER,2400 MCKINNEY BOULEVARD,COLONIAL BEACH,VA,22443,2400 MCKINNEY BOULEVARD COLONIAL BEACH VA 22443
495269,38.8812752,-77.1130095,THE JEFFERSON,900 NORTH TAYLOR STREET,ARLINGTON,VA,22203,900 NORTH TAYLOR STREET ARLINGTON VA 22203
495270,36.8358139,-76.1029101,SENTARA NURSING CENTER VA BEAC,3750 SENTARA WAY,VIRGINIA BEACH,VA,23452,3750 SENTARA WAY VIRGINIA BEACH VA 23452
495272,37.6155522,-77.6368774,CANTERBURY REHABILITATION & HEALTH CARE CENTER,1776 CAMBRIDGE DRIVE,RICHMOND,VA,23238,1776 CAMBRIDGE DRIVE RICHMOND VA 23238
495273,36.8814356,-76.2835951,CONSULATE HEALTH CARE OF NORFOLK,3900 LLEWELLYN AVE,NORFOLK,VA,23504,3900 LLEWELLYN AVE NORFOLK VA 23504
495274,37.277894,-80.0118562,VIRGINIA VETERANS CARE CENTER,4550 SHENANDOAH AVE N W,ROANOKE,VA,24017,4550 SHENANDOAH AVE N W ROANOKE VA 24017
495275,39.1202722,-77.5680489,LOUDOUN NURSING AND REHAB CNTR,"235 OLD WATERFORD ROAD, NORTHWEST",LEESBURG,VA,20176,"235 OLD WATERFORD ROAD, NORTHWEST LEESBURG VA 20176"
495276,37.4220664,-76.5434945,WALTER REED CONVALESCENT AND REHABILITATION CENTER,7602 MEREDITH DRIVE,GLOUCESTER,VA,23061,7602 MEREDITH DRIVE GLOUCESTER VA 23061
495277,37.4714481,-75.8606577,HERITAGE HALL NASSAWADOX,9468 HOSPITAL ROAD,NASSAWADOX,VA,23413,9468 HOSPITAL ROAD NASSAWADOX VA 23413
495279,38.4593099,-78.0157036,CULPEPER HEALTH & REHABILITATION CENTER,602 MADISON ROAD,CULPEPER,VA,22701,602 MADISON ROAD CULPEPER VA 22701
495280,38.6868005,-77.2768442,WESTMINSTER AT LAKE RIDGE,12185 CLIPPER DRIVE,LAKE RIDGE,VA,22192,12185 CLIPPER DRIVE LAKE RIDGE VA 22192
495281,36.689811,-79.8429357,BLUE RIDGE REHAB CENTER,300 BLUE RIDGE  STREET,MARTINSVILLE,VA,24112,300 BLUE RIDGE  STREET MARTINSVILLE VA 24112
495282,38.0204564,-78.004465,LOUISA HEALTH & REHABILITATION CENTER,210 ELM STREET,LOUISA,VA,23093,210 ELM STREET LOUISA VA 23093
495283,37.5879723,-77.4690518,MANORCARE HEALTH SERVICES-IMPERIAL,1719 BELLEVUE AVENUE,RICHMOND,VA,23227,1719 BELLEVUE AVENUE RICHMOND VA 23227
495286,37.0342424,-76.4554953,JAMES RIVER NURSING AND REHABILITATION CENTER,540 ABERTHAW AVENUE,NEWPORT NEWS,VA,23601,540 ABERTHAW AVENUE NEWPORT NEWS VA 23601
495287,37.0524205,-76.396148,"HAMPTON HEALTH & REHAB CENTER, LLC",2230 EXECUTIVE DRIVE,HAMPTON,VA,23666,2230 EXECUTIVE DRIVE HAMPTON VA 23666
495288,38.8381786,-77.1140883,THE FOUNTAINS AT WASHINGTON HOUSE,5100 FILLMORE AVENUE,ALEXANDRIA,VA,22311,5100 FILLMORE AVENUE ALEXANDRIA VA 22311
495291,37.6120438,-77.6339239,BETH SHOLOM HOME OF VIRGINIA,1600 JOHN ROLFE PARKWAY,RICHMOND,VA,23233,1600 JOHN ROLFE PARKWAY RICHMOND VA 23233
495293,37.2699619,-79.8855074,BERKSHIRE HEALTH & REHABILITATION CENTER,705 CLEARVIEW DRIVE,VINTON,VA,24179,705 CLEARVIEW DRIVE VINTON VA 24179
495294,37.0692789,-80.7594602,PULASKI HLTH & REHAB CNTR,2401 LEE HIGHWAY,PULASKI,VA,24301,2401 LEE HIGHWAY PULASKI VA 24301
495295,36.5959819,-79.4096362,RIVERSIDE HEALTH & REHAB CNTR,2344 RIVERSIDE DRIVE,DANVILLE,VA,24540,2344 RIVERSIDE DRIVE DANVILLE VA 24540
495296,36.7082535,-77.0556368,ACCORDIUS HEALTH AT COURTLAND,23020 MAIN STREET,COURTLAND,VA,23837,23020 MAIN STREET COURTLAND VA 23837
495297,38.0474669,-77.3559961,BOWLING GREEN HEALTH & REHABILITATION CENTER,120 ANDERSON AVENUE,BOWLING GREEN,VA,22427,120 ANDERSON AVENUE BOWLING GREEN VA 22427
495299,37.6740201,-77.5215645,ELIZABETH ADAM CRUMP HEALTH AND REHAB,3600 MOUNTAIN ROAD,GLEN ALLEN,VA,23060,3600 MOUNTAIN ROAD GLEN ALLEN VA 23060
495300,38.2761793,-77.1944349,HERITAGE HALL KING GEORGE,10051 FOXES WAY,KING GEORGE,VA,22485,10051 FOXES WAY KING GEORGE VA 22485
495301,38.9485516,-78.2117876,HERITAGE HALL  FRONT ROYAL,400 WEST STRASBURG ROAD,FRONT ROYAL,VA,22630,400 WEST STRASBURG ROAD FRONT ROYAL VA 22630
495302,37.4082834,-79.1758397,THE CARRINGTON,2406 ATHERHOLT ROAD,LYNCHBURG,VA,24501,2406 ATHERHOLT ROAD LYNCHBURG VA 24501
495303,37.5645032,-76.7995705,RIVERSIDE CONVALESCENT CNTR WE,2960 CHELSEA ROAD,WEST POINT,VA,23181,2960 CHELSEA ROAD WEST POINT VA 23181
495305,37.0492778,-76.3963741,COLISEUM NURSING AND REHABILITATION CENTER,305 MARCELLA ROAD,HAMPTON,VA,23666,305 MARCELLA ROAD HAMPTON VA 23666
495306,36.63747,-80.2600535,BLUE RIDGE THERAPY CONNECTION,105 LANDMARK DRIVE,STUART,VA,24171,105 LANDMARK DRIVE STUART VA 24171
495308,37.0122814,-76.3639546,WATERVIEW HEALTH & REHAB CENTER,414 ALGONQUIN RD,HAMPTON,VA,23661,414 ALGONQUIN RD HAMPTON VA 23661
495309,36.8900417,-76.2551987,NORVIEW HEIGHTS REHABILITATION AND NURSING,827 NORVIEW AVENUE,NORFOLK,VA,23509,827 NORVIEW AVENUE NORFOLK VA 23509
495311,37.6550859,-77.6362602,OUR LADY OF HOPE HEALTH CENTER,13700 NORTH GAYTON ROAD,RICHMOND,VA,23233,13700 NORTH GAYTON ROAD RICHMOND VA 23233
495312,39.0471187,-77.3763733,JOHNSON CNTR/FALCONS LANDING,20535 EARHART PLACE,POTOMAC FALLS,VA,20165,20535 EARHART PLACE POTOMAC FALLS VA 20165
495315,38.8702541,-78.5145697,CONSULATE HEALTH CARE OF WOODSTOCK,803 SOUTH MAIN ST,WOODSTOCK,VA,22664,803 SOUTH MAIN ST WOODSTOCK VA 22664
495316,38.9299903,-78.1981275,LYNN CARE CENTER,1000 SHENANDOAH AVENUE,FRONT ROYAL,VA,22630,1000 SHENANDOAH AVENUE FRONT ROYAL VA 22630
495317,37.5431529,-78.4655434,HERITAGE HALL DILLWYN,119 BRICKYARD DRIVE,DILLWYN,VA,23936,119 BRICKYARD DRIVE DILLWYN VA 23936
495318,36.6981992,-78.9198516,BERRY HILL NURSING HOME,621 BERRY HILL ROAD,SOUTH BOSTON,VA,24592,621 BERRY HILL ROAD SOUTH BOSTON VA 24592
495319,38.8630166,-77.2649854,THE VIRGINIAN,9229 ARLINGTON BLVD,FAIRFAX,VA,22031,9229 ARLINGTON BLVD FAIRFAX VA 22031
495320,37.1584045,-82.4478298,HERITAGE HALL CLINTWOOD,"1225 CLINTWOOD MAIN STREET, ROUTE 607 PO BOX 909",CLINTWOOD,VA,24228,"1225 CLINTWOOD MAIN STREET, ROUTE 607 PO BOX 909 CLINTWOOD VA 24228"
495321,37.7749658,-79.442523,HERITAGE HALL LEXINGTON,205 HOUSTON STREET,EAST LEXINGTON,VA,24450,205 HOUSTON STREET EAST LEXINGTON VA 24450
495323,36.7203745,-80.4745841,HERITAGE HALL - LAUREL MEADOWS,16600 DANVILLE PIKE,LAUREL FORK,VA,24352,16600 DANVILLE PIKE LAUREL FORK VA 24352
495324,36.7878356,-75.9824326,SEASIDE HHC @ ATLANTIC SHORE,1200 ATLANTIC SHORES DRIVE,VIRGINIA BEACH,VA,23454,1200 ATLANTIC SHORES DRIVE VIRGINIA BEACH VA 23454
495325,37.2230005,-79.9596634,PHEASANT RIDGE NURSING & REHAB CENTER,"4355 PHEASANT RIDGE ROAD, SW",ROANOKE,VA,24014,"4355 PHEASANT RIDGE ROAD, SW ROANOKE VA 24014"
495326,38.0705945,-78.4946398,MONROE HEALTH & REHAB CENTER,1150 NORTHWEST DRIVE,CHARLOTTESVILLE,VA,22901,1150 NORTHWEST DRIVE CHARLOTTESVILLE VA 22901
495327,37.5206394,-77.481266,ENVOY OF WESTOVER HILLS,4403 FOREST HILL AVENUE,RICHMOND,VA,23225,4403 FOREST HILL AVENUE RICHMOND VA 23225
495328,37.9218951,-76.8706097,CARRINGTON PLACE OF TAPPAHANNOCK,1150 MARSH STREET,TAPPAHANNOCK,VA,22560,1150 MARSH STREET TAPPAHANNOCK VA 22560
495330,36.7770761,-76.337181,GREENBRIER REGIONAL MEDICAL CENTER,1017 GEORGE WASHINGTON HIGHWAY NORTH,CHESAPEAKE,VA,23323,1017 GEORGE WASHINGTON HIGHWAY NORTH CHESAPEAKE VA 23323
495331,36.6177629,-81.1535161,GRAYSON REHABILITATION  AND HEALTH CARE CENTER,400 SOUTH INDEPENDENCE AVENUE,INDEPENDENCE,VA,24348,400 SOUTH INDEPENDENCE AVENUE INDEPENDENCE VA 24348
495332,36.9810474,-76.6078297,RIVERSIDE HEALTHY LIVING COMMUNITY-SMITHFIELD,101 JOHN ROLFE DRIVE,SMITHFIELD,VA,23430,101 JOHN ROLFE DRIVE SMITHFIELD VA 23430
495333,37.1056784,-80.6853433,HIGHLAND RIDGE REHAB CENTER,5872 HANKS STREET  PO BOX 1087,DUBLIN,VA,24084,5872 HANKS STREET  PO BOX 1087 DUBLIN VA 24084
495334,37.7590896,-75.6229001,SHORE HEALTH & REHAB CENTER,26181 PARKSLEY ROAD,PARKSLEY,VA,23421,26181 PARKSLEY ROAD PARKSLEY VA 23421
495336,38.0930549,-78.9939504,AUGUSTA NURSING & REHAB CENTER,83 CROSSROADS LANE,FISHERSVILLE,VA,22939,83 CROSSROADS LANE FISHERSVILLE VA 22939
495337,38.8126368,-77.19147,LEEWOOD HEALTHCARE CENTER,7120 BRADDOCK ROAD,ANNANDALE,VA,22003,7120 BRADDOCK ROAD ANNANDALE VA 22003
495338,36.7206071,-81.9608544,GRACE HEALTHCARE OF ABINGDON,600 WALDEN ROAD,ABINGDON,VA,24210,600 WALDEN ROAD ABINGDON VA 24210
495339,37.3074353,-78.4212785,HOLLY MANOR NURSING HOME,2003 COBB STREET,FARMVILLE,VA,23901,2003 COBB STREET FARMVILLE VA 23901
495340,37.104087,-76.507581,NEWPORT NEWS NURSING & REHAB,12997 NETTLES DRIVE,NEWPORT NEWS,VA,23602,12997 NETTLES DRIVE NEWPORT NEWS VA 23602
495342,37.1946409,-76.4881903,YORK CONVALESCENT AND REHABILITATION  CENTER,113 BATTLE ROAD,YORKTOWN,VA,23692,113 BATTLE ROAD YORKTOWN VA 23692
495343,38.2917679,-78.4378472,GRACE HEALTH AND REHAB CENTER OF GREENE COUNTY,355 WILLIAM MILLS DRIVE,STANARDSVILLE,VA,22973,355 WILLIAM MILLS DRIVE STANARDSVILLE VA 22973
495344,38.1616863,-79.0699342,KINGS DAUGHTERS COMMUNITY HEALTH & REHAB,1410 NORTH AUGUSTA STREET,STAUNTON,VA,24401,1410 NORTH AUGUSTA STREET STAUNTON VA 24401
495345,37.7145183,-76.383353,LANCASHIRE CONVALESCENT AND REHABILITATION CENTER,287 SCHOOL STREET,KILMARNOCK,VA,22482,287 SCHOOL STREET KILMARNOCK VA 22482
495346,36.898877,-76.281654,"BON SECOURS DEPAUL,TCC",150 KINGSLEY LANE,NORFOLK,VA,23505,150 KINGSLEY LANE NORFOLK VA 23505
495347,36.8198944,-76.7483962,CONSULATE HEALTH CARE OF WINDSOR,23352 COURTHOUSE HIGHWAY,WINDSOR,VA,23487,23352 COURTHOUSE HIGHWAY WINDSOR VA 23487
495348,36.9199817,-80.2992423,SKYLINE NURSING & REHABILITATION CENTER,"237 FRANKLIN PIKE ROAD, SE",FLOYD,VA,24091,"237 FRANKLIN PIKE ROAD, SE FLOYD VA 24091"
495349,36.9658371,-81.087452,CARRINGTON PLACE AT WYTHEVILLE - BIRDMONT CENTER,990 HOLSTON RD,WYTHEVILLE,VA,24382,990 HOLSTON RD WYTHEVILLE VA 24382
495350,36.9675523,-82.5585264,HERITAGE HALL WISE,9434 COEBURN MOUNTAIN ROAD,WISE,VA,24293,9434 COEBURN MOUNTAIN ROAD WISE VA 24293
495352,36.7503649,-83.0500971,LEE HEALTH AND REHAB CENTER,208 HEALTH CARE DRIVE,PENNINGTON GAP,VA,24277,208 HEALTH CARE DRIVE PENNINGTON GAP VA 24277
495353,37.0710059,-78.003573,HERITAGE HALL BLACKSTONE,900 S MAIN ST,BLACKSTONE,VA,23824,900 S MAIN ST BLACKSTONE VA 23824
495354,38.7660418,-77.2010382,GREENSPRING VILLAGE,7470 SPRING VILLAGE DR,SPRINGFIELD,VA,22150,7470 SPRING VILLAGE DR SPRINGFIELD VA 22150
495355,37.1287521,-80.5692427,RADFORD HEALTH AND REHAB CENTER,700 RANDOLPH STREET,RADFORD,VA,24141,700 RANDOLPH STREET RADFORD VA 24141
495356,37.1873278,-80.4081423,HERITAGE HALL BLACKSBURG,3610 SOUTH MAIN STREET,BLACKSBURG,VA,24060,3610 SOUTH MAIN STREET BLACKSBURG VA 24060
495357,37.2782924,-79.9412254,OUR LADY OF THE VALLEY,650 NORTH JEFFERSON STREET,ROANOKE,VA,24016,650 NORTH JEFFERSON STREET ROANOKE VA 24016
495358,37.3365134,-77.9847946,WELLSPRINGS AT AMELIA,8830 VIRGINIA STREET,AMELIA,VA,23002,8830 VIRGINIA STREET AMELIA VA 23002
495359,38.2546278,-78.1176893,DOGWOOD VILLAGE OF ORANGE COUNTY HEALTH AND REHAB,120 DOGWOOD LANE,ORANGE,VA,22960,120 DOGWOOD LANE ORANGE VA 22960
495360,37.8199448,-79.8143096,THE WOODLANDS HEALTH AND REHAB CENTER,1000 FAIRVIEW HEIGHTS,CLIFTON FORGE,VA,24422,1000 FAIRVIEW HEIGHTS CLIFTON FORGE VA 24422
495361,38.6291872,-77.2752902,"ENVOY OF WOODBRIDGE, LLC",14906 JEFFERSON DAVIS HIGHWAY,WOODBRIDGE,VA,22191,14906 JEFFERSON DAVIS HIGHWAY WOODBRIDGE VA 22191
495362,37.7677133,-77.4953806,ASHLAND NURSING AND REHABILITATION,906 THOMPSON STREET,ASHLAND,VA,23005,906 THOMPSON STREET ASHLAND VA 23005
495363,37.5790334,-79.0378996,FAIRMONT CROSSING HEALTH AND REHABILITATION,173 BROCKMAN PARK DRIVE,AMHERST,VA,24521,173 BROCKMAN PARK DRIVE AMHERST VA 24521
495364,37.961846,-76.7744995,NORTHERN NECK SENIOR CARE COMMUNITY,20 DELFAE DRIVE,WARSAW,VA,22572,20 DELFAE DRIVE WARSAW VA 22572
495365,36.900942,-82.0801309,MAPLE GROVE HEALTH CARE CENTER,POST OFFICE BOX 2409,LEBANON,VA,24266,POST OFFICE BOX 2409 LEBANON VA 24266
495366,36.7877409,-76.6191584,"LAKE PRINCE WOODS, INC",100 ANNA GOODE WAY,SUFFOLK,VA,23434,100 ANNA GOODE WAY SUFFOLK VA 23434
495367,37.0445028,-76.4328534,NORTHAMPTON NURSING AND REHABILITATION CENTER,1028 TOPPING LANE,HAMPTON,VA,23666,1028 TOPPING LANE HAMPTON VA 23666
495368,37.0495204,-76.4759871,THE NEWPORT,11141 WARWICK BLVD,NEWPORT NEWS,VA,23601,11141 WARWICK BLVD NEWPORT NEWS VA 23601
495369,37.2558092,-76.8083012,THE CONVALESCENT CENTER AT PATRIOTS COLONY,6000 PATRIOTS COLONY DRIVE,WILLIAMSBURG,VA,23188,6000 PATRIOTS COLONY DRIVE WILLIAMSBURG VA 23188
495370,38.3823867,-78.9700965,"BRIDGEWATER HOME , INC.",302 NORTH SECOND STREET,BRIDGEWATER,VA,22812,302 NORTH SECOND STREET BRIDGEWATER VA 22812
495371,37.387595,-80.827312,HERITAGE HALL-RICH CREEK,120  OLD VIRGINIA AVENUE,RICH CREEK,VA,24147,120  OLD VIRGINIA AVENUE RICH CREEK VA 24147
495372,36.7338101,-78.9225037,SENTARA WOODVIEW,103 ROSEHILL DRIVE,SOUTH BOSTON,VA,24592,103 ROSEHILL DRIVE SOUTH BOSTON VA 24592
495373,37.2644521,-80.0137962,BRANDON OAKS NURSING AND REHABILITATION CENTER,3837 BRANDON AVENUE,ROANOKE,VA,24018,3837 BRANDON AVENUE ROANOKE VA 24018
495374,36.9444704,-82.6254681,MOUNTAIN VIEW REGIONAL MEDICAL CENTER,"310 THIRD STREET,  NE",NORTON,VA,24273,"310 THIRD STREET,  NE NORTON VA 24273"
495375,36.6996704,-77.5375346,EMPORIA REHABILITATION AND HEALTHCARE CENTER,200 WEAVER AVENUE,EMPORIA,VA,23847,200 WEAVER AVENUE EMPORIA VA 23847
495377,38.06897,-78.48225,THE LAURELS OF CHARLOTTESVILLE,490 HILLSDALE DRIVE,CHARLOTTESVILLE,VA,22901,490 HILLSDALE DRIVE CHARLOTTESVILLE VA 22901
495378,37.2983614,-79.8896191,SPRINGTREE HEALTHCARE & REHAB CENTER,3433 SPRINGTREE DRIVE,ROANOKE,VA,24012,3433 SPRINGTREE DRIVE ROANOKE VA 24012
495379,36.6225625,-78.5776625,CLARKSVILLE HEALTH & REHAB CENTER,184 BUFFALO ROAD,CLARKSVILLE,VA,23927,184 BUFFALO ROAD CLARKSVILLE VA 23927
495380,36.8176155,-78.4704435,CHASE CITY HEALTH AND REHAB CENTER,5539 HIGHWAY FORTY SEVEN,CHASE CITY,VA,23924,5539 HIGHWAY FORTY SEVEN CHASE CITY VA 23924
495381,37.3555429,-79.2415467,SUMMIT HEALTH & REHABILITATION CENTER,1300 ENTERPRISE DRIVE,LYNCHBURG,VA,24502,1300 ENTERPRISE DRIVE LYNCHBURG VA 24502
495383,37.4154495,-76.5262879,"FRANCIS N SANDERS NURSING HOME, INC",7385 WALKER AVE,GLOUCESTER,VA,23061,7385 WALKER AVE GLOUCESTER VA 23061
495384,36.8530156,-81.505892,FRANCIS MARION MANOR HEALTH & REHABILITATION,"100 FRANCIS MARION LANE, PO BOX 880",MARION,VA,24354,"100 FRANCIS MARION LANE, PO BOX 880 MARION VA 24354"
495385,38.4745479,-78.872857,"VMRC, COMPLETE LIVING CARE",1475 VIRGINIA AVENUE,HARRISONBURG,VA,22802,1475 VIRGINIA AVENUE HARRISONBURG VA 22802
495386,37.3928,-79.9126673,CARRINGTON PLACE AT BOTETOURT COMMONS,290 COMMONS PARKWAY,DALEVILLE,VA,24083,290 COMMONS PARKWAY DALEVILLE VA 24083
495387,38.3978914,-78.8346367,SUNNYSIDE PRESBYTERIAN RETIREMENT COMMUNITY,"3935 SUNNYSIDE DRIVE, SUITE A",HARRISONBURG,VA,22801,"3935 SUNNYSIDE DRIVE, SUITE A HARRISONBURG VA 22801"
495388,38.8039587,-77.6053246,GAINESVILLE HEALTH AND REHAB CENTER,7501 HERITAGE VILLAGE PLAZA,GAINESVILLE,VA,20155,7501 HERITAGE VILLAGE PLAZA GAINESVILLE VA 20155
495389,39.206185,-78.1667306,"ENVOY OF WINCHESTER, LLC",110 LAUCK DR,WINCHESTER,VA,22603,110 LAUCK DR WINCHESTER VA 22603
495390,38.765055,-77.4534351,BIRMINGHAM GREEN,8605 CENTREVILLE ROAD,MANASSAS,VA,20110,8605 CENTREVILLE ROAD MANASSAS VA 20110
495391,37.5883779,-77.5043727,GLENBURNIE REHAB & NURSING CENTER,1901 LIBBIE AVE,RICHMOND,VA,23226,1901 LIBBIE AVE RICHMOND VA 23226
495392,36.8679154,-76.0235058,"COLONIAL HEALTH & REHAB CENTER, LLC",1604 OLD DONATION PKWY,VIRGINIA BEACH,VA,23454,1604 OLD DONATION PKWY VIRGINIA BEACH VA 23454
495393,37.4930705,-77.4677957,SITTER AND BARFOOT VETERANS CARE CENTER,1601 BROADROCK BLVD,RICHMOND,VA,23224,1601 BROADROCK BLVD RICHMOND VA 23224
495394,37.4967545,-77.5636435,THE LAURELS OF BON AIR,9101 BON AIR CROSSINGS DRIVE,BON AIR,VA,23235,9101 BON AIR CROSSINGS DRIVE BON AIR VA 23235
495395,36.8595136,-76.3011154,HARBOR'S EDGE,ONE COLLEY AVENUE,NORFOLK,VA,23510,ONE COLLEY AVENUE NORFOLK VA 23510
495396,38.2877017,-77.5457307,CARRIAGE HILL HEALTH AND REHAB CENTER,6106 HEALTH CENTER LANE,FREDERICKSBURG,VA,22407,6106 HEALTH CENTER LANE FREDERICKSBURG VA 22407
495397,37.0925834,-76.4525127,THE CHESAPEAKE,955 HARPERSVILLE RD,NEWPORT NEWS,VA,23601,955 HARPERSVILLE RD NEWPORT NEWS VA 23601
495398,37.183783,-77.4845132,DINWIDDIE HEALTH AND REHAB CENTER,46 DIAMOND DRIVE,PETERSBURG,VA,23803,46 DIAMOND DRIVE PETERSBURG VA 23803
495399,36.8084388,-79.3950105,CHATHAM HEALTH & REHABILITATION CENTER,100 RORER STREET,CHATHAM,VA,24531,100 RORER STREET CHATHAM VA 24531
495400,38.4436986,-78.0180894,THE CULPEPER,12425 VILLAGE LOOP,CULPEPER,VA,22701,12425 VILLAGE LOOP CULPEPER VA 22701
495401,37.3540949,-77.4832377,TYLER'S RETREAT AT IRON BRIDGE,12001 IRON BRIDGE RD,CHESTER,VA,23831,12001 IRON BRIDGE RD CHESTER VA 23831
495402,37.278693,-76.7615155,WINDSORMEADE OF WILLIAMSBURG,3900 WINDSOR HALL DRIVE,WILLIAMSBURG,VA,23188,3900 WINDSOR HALL DRIVE WILLIAMSBURG VA 23188
495403,37.6073639,-77.6338344,LAKEWOOD MANOR,1900 LAUDERDALE DRIVE,RICHMOND,VA,23238,1900 LAUDERDALE DRIVE RICHMOND VA 23238
495404,37.4211223,-79.915466,THE GLEBE,250 GLEBE ROAD,DALEVILLE,VA,24083,250 GLEBE ROAD DALEVILLE VA 24083
495405,38.067292,-78.9013291,SUMMIT SQUARE,501 OAK AVENUE,WAYNESBORO,VA,22980,501 OAK AVENUE WAYNESBORO VA 22980
495406,37.1964213,-80.4236981,THE WYBE AND MARIETJE KROONTJE HEALTH CARE CENTER,1000 LITTON LANE,BLACKSBURG,VA,24060,1000 LITTON LANE BLACKSBURG VA 24060
495407,38.3664428,-77.507567,FALLS RUN NURSING AND REHAB CENTER,140 BRIMLEY DRIVE,FREDERICKSBURG,VA,22406,140 BRIMLEY DRIVE FREDERICKSBURG VA 22406
495408,36.7315041,-79.8882659,KING'S GRANT RETIREMENT COMMUN,350 KING'S WAY ROAD,MARTINSVILLE,VA,24112,350 KING'S WAY ROAD MARTINSVILLE VA 24112
495409,36.7254355,-81.9045949,ABINGDON HEALTH CARE LLC,15051 HARMONY HILLS LANE,ABINGDON,VA,24211,15051 HARMONY HILLS LANE ABINGDON VA 24211
495410,38.9195146,-77.1538639,ARLEIGH BURKE PAVILION,1739 KIRBY ROAD,MC LEAN,VA,22101,1739 KIRBY ROAD MC LEAN VA 22101
495411,37.3364416,-79.1760001,LIBERTY RIDGE HEALTH & REHAB,189 MONICA BLVD,LYNCHBURG,VA,24502,189 MONICA BLVD LYNCHBURG VA 24502
495412,36.6157137,-82.564471,NOVA HEALTH AND REHAB,377 CLONCE ST,WEBER CITY,VA,24290,377 CLONCE ST WEBER CITY VA 24290
495413,37.6404861,-77.3562204,AUTUMN CARE OF MECHANICSVILLE,7600 AUTUMN PARKWAY,MECHANICSVILLE,VA,23116,7600 AUTUMN PARKWAY MECHANICSVILLE VA 23116
495414,36.7732233,-76.5809551,SENTARA OBICI SPECIALTY REHABILITATION CENTER,2800 GODWIN BOULEVARD,SUFFOLK,VA,23434,2800 GODWIN BOULEVARD SUFFOLK VA 23434
495415,39.2010056,-78.210997,THE VILLAGE AT ORCHARD RIDGE,100 PROCESSION WAY,WINCHESTER,VA,22603,100 PROCESSION WAY WINCHESTER VA 22603
495416,39.0309811,-77.4522932,ASHBY PONDS INC,21160 MAPLE BRANCH TERRACE,ASHBURN,VA,20147,21160 MAPLE BRANCH TERRACE ASHBURN VA 20147
495417,36.9007715,-81.2741348,CARRINGTON PLACE AT RURAL RETREAT,514 NORTH MAIN STREET,RURAL RETREAT,VA,24368,514 NORTH MAIN STREET RURAL RETREAT VA 24368
495418,36.7710989,-76.0881386,PRINCESS ANNE HEALTH & REHABILITATION CENTER,1948 LANDSTOWN CENTRE WAY,VIRGINIA BEACH,VA,23456,1948 LANDSTOWN CENTRE WAY VIRGINIA BEACH VA 23456
495419,37.62429,-77.345005,COVENANT WOODS NURSING HOME,7090 COVENANT WOODS DRIVE,MECHANICSVILLE,VA,23111,7090 COVENANT WOODS DRIVE MECHANICSVILLE VA 23111
495420,37.9964833,-78.4971923,ALBEMARLE HEALTH AND REHABILITATION CENTER,1540 FOUNDERS PLACE,CHARLOTTESVILLE,VA,22902,1540 FOUNDERS PLACE CHARLOTTESVILLE VA 22902
495421,37.2055746,-79.9913879,FRIENDSHIP HEALTH AND REHAB CENTER - SOUTH,5647 STARKEY ROAD,CAVE SPRING,VA,24018,5647 STARKEY ROAD CAVE SPRING VA 24018
495422,37.6087625,-76.5078612,DOCKSIDE HEALTH & REHAB CENTER,74 MIZPAH ROAD,LOCUST HILL,VA,23092,74 MIZPAH ROAD LOCUST HILL VA 23092
495423,37.5383215,-77.5305711,BONVIEW REHABILITATION AND HEALTHCARE,7246 FOREST HILL AVE,RICHMOND,VA,23225,7246 FOREST HILL AVE RICHMOND VA 23225
495424,38.7865951,-77.6313323,LAKE MANASSAS HEALTH & REHABILITATION CENTER,14935 HOLLY KNOLL LANE,GAINESVILLE,VA,20155,14935 HOLLY KNOLL LANE GAINESVILLE VA 20155
495425,36.6297218,-82.118188,THE REHAB CENTER AT BRISTOL,109 VILLAGE CIRCLE,BRISTOL,VA,24201,109 VILLAGE CIRCLE BRISTOL VA 24201
495426,36.689811,-79.8429357,MULBERRY CREEK NURSING AND REHAB CENTER,300 BLUE RIDGE STREET,MARTINSVILLE,VA,24112,300 BLUE RIDGE STREET MARTINSVILLE VA 24112
495428,37.6021832,-77.5505614,AUGUST HEALTHCARE AT RICHMOND,1503 MICHAEL ROAD,RICHMOND,VA,23229,1503 MICHAEL ROAD RICHMOND VA 23229
495429,37.4283501,-76.3221638,RIVERSIDE CONVAL CENTER-MATHEW,603 MAIN STREET,MATHEWS,VA,23109,603 MAIN STREET MATHEWS VA 23109
495430,37.6023533,-76.5969514,RIVERSIDE CONVAL CENTER-SALUDA,672 GLOUCESTER ROAD,SALUDA,VA,23149,672 GLOUCESTER ROAD SALUDA VA 23149
495431,38.3679043,-77.5083329,BEREA HEALTH & REHAB CENTER,55 BRIMLEY DRIVE,FREDERICKSBURG,VA,22406,55 BRIMLEY DRIVE FREDERICKSBURG VA 22406
49A007,38.0732699,-78.4738624,OUR LADY OF PEACE INC,751 HILLSDALE DRIVE,CHARLOTTESVILLE,VA,22901,751 HILLSDALE DRIVE CHARLOTTESVILLE VA 22901
49A022,37.5707689,-77.4508099,VCU HEALTH CHILDREN'S SERVICES AT BROOK ROAD,2924 BROOK RD,RICHMOND,VA,23220,2924 BROOK RD RICHMOND VA 23220
49E004,37.3115819,-79.5021367,BEDFORD CO NURSING HOME,1229 COUNTY FARM ROAD,BEDFORD,VA,24523,1229 COUNTY FARM ROAD BEDFORD VA 24523
49E050,38.3392723,-78.2064564,MOUNTAIN VIEW NURSING HOME,1776 ELLY ROAD,ARODA,VA,22709,1776 ELLY ROAD ARODA VA 22709
49E075,38.8817784,-78.5058429,SKYLINE TERRACE CONV HOME,PO BOX 558,WOODSTOCK,VA,22664,PO BOX 558 WOODSTOCK VA 22664
49E076,37.2931038,-80.0594733,SNYDER NURSING HOME,11 NORTH BROAD ST,SALEM,VA,24153,11 NORTH BROAD ST SALEM VA 24153
49E084,37.5405548,-77.4713426,THE VIRGINIA HOME,1101 HAMPTON ST,RICHMOND,VA,23220,1101 HAMPTON ST RICHMOND VA 23220
49E131,36.8331033,-81.511123,SW VA M H INST GERI TRT CTR,340 BAGLEY CIRCLE,MARION,VA,24354,340 BAGLEY CIRCLE MARION VA 24354
49E151,37.6021832,-77.5505614,LITTLE SISTERS OF THE POOR IN RICHMOND,1503 MICHAEL ROAD,RICHMOND,VA,23229,1503 MICHAEL ROAD RICHMOND VA 23229
49E185,33.8316043,-78.6766147,RIVERSIDE CONVAL CENTER-SALUDA,PO BOX 303 US 17,SALUDA,VA,23149,PO BOX 303 US 17 SALUDA VA 23149
49E215,37.4283501,-76.3221638,RIVERSIDE CONVAL CENTER-MATHEW,603 MAIN STREET,MATHEWS,VA,23109,603 MAIN STREET MATHEWS VA 23109
49E256,36.8103394,-76.1362289,OUR LADY OF PERPETUAL HELP,4560 PRINCESS ANNE ROAD,VIRGINIA BEACH,VA,23462,4560 PRINCESS ANNE ROAD VIRGINIA BEACH VA 23462
